placename	longitude	latitude	file 	query
Agabu	34.75619	-14.59657	197_pdf.txt	Agabu
Agabu	34.75619	-14.59657	46_pdf.txt	Agabu
Antonio	33.23333	-13.85	197_pdf.txt	Antonio
Antonio	33.23333	-13.85	248_pdf.txt	Antonio
Antonio	33.23333	-13.85	46_pdf.txt	Antonio
Balaka	34.95575	-14.97928	126_pdf.txt	Balaka
Balaka	34.95575	-14.97928	139_pdf.txt	Balaka
Balaka	34.95575	-14.97928	144_pdf.txt	Balaka
Balaka	34.95575	-14.97928	149_pdf.txt	Balaka
Balaka	34.95575	-14.97928	169_pdf.txt	Balaka
Balaka	34.95575	-14.97928	200_pdf.txt	Balaka
Balaka	34.95575	-14.97928	202_pdf.txt	Balaka
Balaka	34.95575	-14.97928	215_pdf.txt	Balaka
Balaka	34.95575	-14.97928	216_pdf.txt	Balaka
Balaka	34.95575	-14.97928	235_pdf.txt	Balaka
Balaka	34.95575	-14.97928	236_pdf.txt	Balaka
Balaka	34.95575	-14.97928	238_pdf.txt	Balaka
Balaka	34.95575	-14.97928	245_pdf.txt	Balaka
Balaka	34.95575	-14.97928	246_pdf.txt	Balaka
Balaka	34.95575	-14.97928	247_pdf.txt	Balaka
Balaka	34.95575	-14.97928	2_pdf.txt	Balaka
Balaka	34.95575	-14.97928	37_pdf.txt	Balaka
Balaka	34.95575	-14.97928	39_pdf.txt	Balaka
Balaka	34.95575	-14.97928	3_pdf.txt	Balaka
Balaka	34.95575	-14.97928	41_pdf.txt	Balaka
Balaka	34.95575	-14.97928	42_pdf.txt	Balaka
Balaka	34.95575	-14.97928	52_pdf.txt	Balaka
Balaka	34.95575	-14.97928	60_pdf.txt	Balaka
Balaka	34.95575	-14.97928	88_pdf.txt	Balaka
Balaka	34.95575	-14.97928	89_pdf.txt	Balaka
Balaka	34.95575	-14.97928	93_pdf.txt	Balaka
Balaka	34.95575	-14.97928	FAO_mapping.csv	Balaka
Balaka	34.95575	-14.97928	Food_Security_and_Agriculture_Project_List_from_MoAFS_March_2011.csv	Balaka
Bana	34.12119	-12.405	31_pdf.txt	Bana
Banda	33.26667	-13.85	168_pdf.txt	Banda
Banda	33.26667	-13.85	192_pdf.txt	Banda
Banda	33.26667	-13.85	193_pdf.txt	Banda
Banda	33.26667	-13.85	206_pdf.txt	Banda
Banda	33.26667	-13.85	30_pdf.txt	Banda
Banda	33.26667	-13.85	36_pdf.txt	Banda
Banda	33.26667	-13.85	53_pdf.txt	Banda
Banda	33.26667	-13.85	84_pdf.txt	Banda
Bangula	35.12483	-16.58194	2_pdf.txt	Bangula
Bangula	35.12483	-16.58194	41_pdf.txt	Bangula
Bangula	35.12483	-16.58194	43_pdf.txt	Bangula
Banja	34	-13.21667	215_pdf.txt	Banja
Banja	34	-13.21667	21_pdf.txt	Banja
Banja	34	-13.21667	238_pdf.txt	Banja
Banja	34	-13.21667	245_pdf.txt	Banja
Banja	34	-13.21667	247_pdf.txt	Banja
Banja	34	-13.21667	248_pdf.txt	Banja
Banja	34	-13.21667	48_pdf.txt	Banja
Banja	34	-13.21667	49_pdf.txt	Banja
Banja	34	-13.21667	52_pdf.txt	Banja
Banja	34	-13.21667	Malawi_DFID_Assignments.csv	Banja
Banja	34	-13.21667	Malawi_DFID_Assignments-Hanna_Murphy-Pack_s_conflicted_copy_2012-04-01-.csv	Banja
Banja	34	-13.21667	Tracking_Sheet.csv	Banja
Banja	34	-13.21667	Tracking_Sheet-Justin_Baker_s_conflicted_copy_2012-03-01-.csv	Banja
Ben	33.73904	-14.37774	13_pdf.txt	Ben
Bilila	33.63333	-15.15	215_pdf.txt	Bilila
Bilila	33.63333	-15.15	52_pdf.txt	Bilila
Biwi	33.96667	-14.18333	IGPWP_Forestry_Project_sites0.csv	Biwi
Biwi	33.96667	-14.18333	IGPWP_Forestry_Project_sites1.csv	Biwi
Biwi	33.96667	-14.18333	IGPWP_Forestry_Project_sites.csv	Biwi
Blantyre	35.00854	-15.78499	100_pdf.txt	Blantyre
Blantyre	35.00854	-15.78499	104_pdf.txt	Blantyre
Blantyre	35.00854	-15.78499	105_pdf.txt	Blantyre
Blantyre	35.00854	-15.78499	110_pdf.txt	Blantyre
Blantyre	35.00854	-15.78499	111_pdf.txt	Blantyre
Blantyre	35.00854	-15.78499	114_pdf.txt	Blantyre
Blantyre	35.00854	-15.78499	117_pdf.txt	Blantyre
Blantyre	35.00854	-15.78499	128_pdf.txt	Blantyre
Blantyre	35.00854	-15.78499	138_pdf.txt	Blantyre
Blantyre	35.00854	-15.78499	139_pdf.txt	Blantyre
Blantyre	35.00854	-15.78499	13_pdf.txt	Blantyre
Blantyre	35.00854	-15.78499	143_pdf.txt	Blantyre
Blantyre	35.00854	-15.78499	144_pdf.txt	Blantyre
Blantyre	35.00854	-15.78499	147_pdf.txt	Blantyre
Blantyre	35.00854	-15.78499	149_pdf.txt	Blantyre
Blantyre	35.00854	-15.78499	150_pdf.txt	Blantyre
Blantyre	35.00854	-15.78499	152_pdf.txt	Blantyre
Blantyre	35.00854	-15.78499	158_pdf.txt	Blantyre
Blantyre	35.00854	-15.78499	15_pdf.txt	Blantyre
Blantyre	35.00854	-15.78499	162_pdf.txt	Blantyre
Blantyre	35.00854	-15.78499	163_pdf.txt	Blantyre
Blantyre	35.00854	-15.78499	166_pdf.txt	Blantyre
Blantyre	35.00854	-15.78499	170_pdf.txt	Blantyre
Blantyre	35.00854	-15.78499	17_pdf.txt	Blantyre
Blantyre	35.00854	-15.78499	18_pdf.txt	Blantyre
Blantyre	35.00854	-15.78499	192_pdf.txt	Blantyre
Blantyre	35.00854	-15.78499	193_pdf.txt	Blantyre
Blantyre	35.00854	-15.78499	195_pdf.txt	Blantyre
Blantyre	35.00854	-15.78499	197_pdf.txt	Blantyre
Blantyre	35.00854	-15.78499	199_pdf.txt	Blantyre
Blantyre	35.00854	-15.78499	1_pdf.txt	Blantyre
Blantyre	35.00854	-15.78499	200_pdf.txt	Blantyre
Blantyre	35.00854	-15.78499	201_pdf.txt	Blantyre
Blantyre	35.00854	-15.78499	202_pdf.txt	Blantyre
Blantyre	35.00854	-15.78499	206_pdf.txt	Blantyre
Blantyre	35.00854	-15.78499	207_pdf.txt	Blantyre
Blantyre	35.00854	-15.78499	208_pdf.txt	Blantyre
Blantyre	35.00854	-15.78499	209_pdf.txt	Blantyre
Blantyre	35.00854	-15.78499	211_pdf.txt	Blantyre
Blantyre	35.00854	-15.78499	215_pdf.txt	Blantyre
Blantyre	35.00854	-15.78499	221_pdf.txt	Blantyre
Blantyre	35.00854	-15.78499	222_pdf.txt	Blantyre
Blantyre	35.00854	-15.78499	235_pdf.txt	Blantyre
Blantyre	35.00854	-15.78499	236_pdf.txt	Blantyre
Blantyre	35.00854	-15.78499	237_pdf.txt	Blantyre
Blantyre	35.00854	-15.78499	238_pdf.txt	Blantyre
Blantyre	35.00854	-15.78499	239_pdf.txt	Blantyre
Blantyre	35.00854	-15.78499	240_pdf.txt	Blantyre
Blantyre	35.00854	-15.78499	241_pdf.txt	Blantyre
Blantyre	35.00854	-15.78499	245_pdf.txt	Blantyre
Blantyre	35.00854	-15.78499	246_pdf.txt	Blantyre
Blantyre	35.00854	-15.78499	247_pdf.txt	Blantyre
Blantyre	35.00854	-15.78499	255_pdf.txt	Blantyre
Blantyre	35.00854	-15.78499	25_pdf.txt	Blantyre
Blantyre	35.00854	-15.78499	29_pdf.txt	Blantyre
Blantyre	35.00854	-15.78499	30_pdf.txt	Blantyre
Blantyre	35.00854	-15.78499	35_pdf.txt	Blantyre
Blantyre	35.00854	-15.78499	37_pdf.txt	Blantyre
Blantyre	35.00854	-15.78499	39_pdf.txt	Blantyre
Blantyre	35.00854	-15.78499	3_pdf.txt	Blantyre
Blantyre	35.00854	-15.78499	42_jpg.txt	Blantyre
Blantyre	35.00854	-15.78499	42_pdf.txt	Blantyre
Blantyre	35.00854	-15.78499	45_pdf.txt	Blantyre
Blantyre	35.00854	-15.78499	46_pdf.txt	Blantyre
Blantyre	35.00854	-15.78499	52_pdf.txt	Blantyre
Blantyre	35.00854	-15.78499	53_pdf.txt	Blantyre
Blantyre	35.00854	-15.78499	54_pdf.txt	Blantyre
Blantyre	35.00854	-15.78499	55_pdf.txt	Blantyre
Blantyre	35.00854	-15.78499	58_pdf.txt	Blantyre
Blantyre	35.00854	-15.78499	59_pdf.txt	Blantyre
Blantyre	35.00854	-15.78499	5_pdf.txt	Blantyre
Blantyre	35.00854	-15.78499	64_pdf.txt	Blantyre
Blantyre	35.00854	-15.78499	67_pdf.txt	Blantyre
Blantyre	35.00854	-15.78499	86_jpg.txt	Blantyre
Blantyre	35.00854	-15.78499	86_pdf.txt	Blantyre
Blantyre	35.00854	-15.78499	88_pdf.txt	Blantyre
Blantyre	35.00854	-15.78499	89_pdf.txt	Blantyre
Blantyre	35.00854	-15.78499	90_pdf.txt	Blantyre
Blantyre	35.00854	-15.78499	93_pdf.txt	Blantyre
Blantyre	35.00854	-15.78499	Food_Security_and_Agriculture_Project_List_from_MoAFS_March_2011.csv	Blantyre
Bonga	34.53033	-14.60808	197_pdf.txt	Bonga
Bonga	34.53033	-14.60808	30_pdf.txt	Bonga
Bonga	34.53033	-14.60808	46_pdf.txt	Bonga
Bowa	33.75	-13.78333	IGPWP_Forestry_Project_sites0.csv	Bowa
Bowa	33.75	-13.78333	IGPWP_Forestry_Project_sites1.csv	Bowa
Bowa	33.75	-13.78333	IGPWP_Forestry_Project_sites.csv	Bowa
Bula	34.7712	-14.86491	215_pdf.txt	Bula
Bula	34.7712	-14.86491	52_pdf.txt	Bula
Bula	34.7712	-14.86491	IGPWP_Forestry_Project_sites0.csv	Bula
Bula	34.7712	-14.86491	IGPWP_Forestry_Project_sites1.csv	Bula
Bula	34.7712	-14.86491	IGPWP_Forestry_Project_sites.csv	Bula
Bvumbwe	35.06667	-15.91667	105_pdf.txt	Bvumbwe
Bvumbwe	35.06667	-15.91667	110_pdf.txt	Bvumbwe
Bvumbwe	35.06667	-15.91667	138_pdf.txt	Bvumbwe
Bvumbwe	35.06667	-15.91667	162_pdf.txt	Bvumbwe
Bvumbwe	35.06667	-15.91667	253_pdf.txt	Bvumbwe
Bvumbwe	35.06667	-15.91667	37_pdf.txt	Bvumbwe
Bvumbwe	35.06667	-15.91667	Food_Security_and_Agriculture_Project_List_from_MoAFS_March_2011.csv	Bvumbwe
Bvumbwe	35.06667	-15.91667	IGPWP_Roads_project_sites0.csv	Bvumbwe
Bvumbwe	35.06667	-15.91667	IGPWP_Roads_project_sites1.csv	Bvumbwe
Bvumbwe	35.06667	-15.91667	IGPWP_Roads_project_sites.csv	Bvumbwe
Bwaila	35.31667	-15.4	29_pdf.txt	Bwaila
Bwengu	33.92209	-11.05462	208_pdf.txt	Bwengu
Bwengu	33.92209	-11.05462	55_pdf.txt	Bwengu
Chadza	33.36667	-14.1	242_pdf.txt	Chadza
Chadza	33.36667	-14.1	244_pdf.txt	Chadza
Chadza	33.36667	-14.1	IGPWP_Forestry_Project_sites0.csv	Chadza
Chadza	33.36667	-14.1	IGPWP_Forestry_Project_sites1.csv	Chadza
Chadza	33.36667	-14.1	IGPWP_Forestry_Project_sites.csv	Chadza
Chafumbwa	33.93973	-14.37353	144_pdf.txt	Chafumbwa
Chafumbwa	33.93973	-14.37353	88_pdf.txt	Chafumbwa
Chakhaza	33.73333	-13.65	IGPWP_Forestry_Project_sites0.csv	Chakhaza
Chakhaza	33.73333	-13.65	IGPWP_Forestry_Project_sites1.csv	Chakhaza
Chakhaza	33.73333	-13.65	IGPWP_Forestry_Project_sites.csv	Chakhaza
Chalunda	34.46667	-13.81667	IGPWP_Forestry_Project_sites0.csv	Chalunda
Chalunda	34.46667	-13.81667	IGPWP_Forestry_Project_sites1.csv	Chalunda
Chalunda	34.46667	-13.81667	IGPWP_Forestry_Project_sites.csv	Chalunda
Chamba	34.91784	-15.90549	28_pdf.txt	Chamba
Chamba	34.91784	-15.90549	42_pdf.txt	Chamba
Chanasa	35.55261	-15.8352	30_pdf.txt	Chanasa
Chanika	34.2	-12.96667	IGPWP_Forestry_Project_sites0.csv	Chanika
Chanika	34.2	-12.96667	IGPWP_Forestry_Project_sites1.csv	Chanika
Chanika	34.2	-12.96667	IGPWP_Forestry_Project_sites.csv	Chanika
Chanyama	33.40428	-11.6443	215_pdf.txt	Chanyama
Chanyama	33.40428	-11.6443	52_pdf.txt	Chanyama
Chapananga	34.77769	-16.05278	149_pdf.txt	Chapananga
Chapananga	34.77769	-16.05278	93_pdf.txt	Chapananga
Chaseta	34.37319	-13.97677	215_pdf.txt	Chaseta
Chaseta	34.37319	-13.97677	52_pdf.txt	Chaseta
Chelinda	33.8083	-10.58173	12_pdf.txt	Chelinda
Chembe	34.84911	-14.01993	IGPWP_Forestry_Project_sites0.csv	Chembe
Chembe	34.84911	-14.01993	IGPWP_Forestry_Project_sites1.csv	Chembe
Chembe	34.84911	-14.01993	IGPWP_Forestry_Project_sites.csv	Chembe
Chia	34.1891	-12.52475	247_pdf.txt	Chia
Chia	34.1891	-12.52475	32_pdf.txt	Chia
Chibako	34.05	-12.01667	206_pdf.txt	Chibako
Chibako	34.05	-12.01667	53_pdf.txt	Chibako
Chichiri	35.04749	-15.80251	111_pdf.txt	Chichiri
Chichiri	35.04749	-15.80251	166_pdf.txt	Chichiri
Chichiri	35.04749	-15.80251	208_pdf.txt	Chichiri
Chichiri	35.04749	-15.80251	55_pdf.txt	Chichiri
Chichiri	35.04749	-15.80251	Food_Security_and_Agriculture_Project_List_from_MoAFS_March_2011.csv	Chichiri
Chigumula	35.05539	-15.91599	IGPWP_Roads_project_sites0.csv	Chigumula
Chigumula	35.05539	-15.91599	IGPWP_Roads_project_sites1.csv	Chigumula
Chigumula	35.05539	-15.91599	IGPWP_Roads_project_sites.csv	Chigumula
Chijere	34.15935	-11.88619	192_pdf.txt	Chijere
Chijere	34.15935	-11.88619	193_pdf.txt	Chijere
Chikombe	34.21667	-12.83333	IGPWP_Roads_project_sites0.csv	Chikombe
Chikombe	34.21667	-12.83333	IGPWP_Roads_project_sites1.csv	Chikombe
Chikombe	34.21667	-12.83333	IGPWP_Roads_project_sites.csv	Chikombe
Chikonde	33.73333	-13.75	206_pdf.txt	Chikonde
Chikonde	33.73333	-13.75	53_pdf.txt	Chikonde
Chikonde	33.73333	-13.75	IGPWP_Roads_project_sites0.csv	Chikonde
Chikonde	33.73333	-13.75	IGPWP_Roads_project_sites1.csv	Chikonde
Chikonde	33.73333	-13.75	IGPWP_Roads_project_sites.csv	Chikonde
Chikoti	33.19356	-13.52998	IGPWP_Forestry_Project_sites0.csv	Chikoti
Chikoti	33.19356	-13.52998	IGPWP_Forestry_Project_sites1.csv	Chikoti
Chikoti	33.19356	-13.52998	IGPWP_Forestry_Project_sites.csv	Chikoti
Chikuli	34.66502	-14.71717	IGPWP_Roads_project_sites0.csv	Chikuli
Chikuli	34.66502	-14.71717	IGPWP_Roads_project_sites1.csv	Chikuli
Chikuli	34.66502	-14.71717	IGPWP_Roads_project_sites.csv	Chikuli
Chikumba	35.81667	-14.76667	215_pdf.txt	Chikumba
Chikumba	35.81667	-14.76667	52_pdf.txt	Chikumba
Chikuni	33.88333	-12.11667	30_pdf.txt	Chikuni
Chikuta	33.13333	-13.88333	IGPWP_Forestry_Project_sites0.csv	Chikuta
Chikuta	33.13333	-13.88333	IGPWP_Forestry_Project_sites1.csv	Chikuta
Chikuta	33.13333	-13.88333	IGPWP_Forestry_Project_sites.csv	Chikuta
Chikwawa	34.51667	-16	126_pdf.txt	Chikwawa
Chikwawa	34.51667	-16	130_pdf.txt	Chikwawa
Chikwawa	34.51667	-16	139_pdf.txt	Chikwawa
Chikwawa	34.51667	-16	149_pdf.txt	Chikwawa
Chikwawa	34.51667	-16	169_pdf.txt	Chikwawa
Chikwawa	34.51667	-16	176_pdf.txt	Chikwawa
Chikwawa	34.51667	-16	185_pdf.txt	Chikwawa
Chikwawa	34.51667	-16	18_pdf.txt	Chikwawa
Chikwawa	34.51667	-16	199_pdf.txt	Chikwawa
Chikwawa	34.51667	-16	200_pdf.txt	Chikwawa
Chikwawa	34.51667	-16	201_pdf.txt	Chikwawa
Chikwawa	34.51667	-16	202_pdf.txt	Chikwawa
Chikwawa	34.51667	-16	209_pdf.txt	Chikwawa
Chikwawa	34.51667	-16	215_pdf.txt	Chikwawa
Chikwawa	34.51667	-16	222_pdf.txt	Chikwawa
Chikwawa	34.51667	-16	235_pdf.txt	Chikwawa
Chikwawa	34.51667	-16	236_pdf.txt	Chikwawa
Chikwawa	34.51667	-16	242_pdf.txt	Chikwawa
Chikwawa	34.51667	-16	244_pdf.txt	Chikwawa
Chikwawa	34.51667	-16	246_pdf.txt	Chikwawa
Chikwawa	34.51667	-16	247_pdf.txt	Chikwawa
Chikwawa	34.51667	-16	253_pdf.txt	Chikwawa
Chikwawa	34.51667	-16	36_pdf.txt	Chikwawa
Chikwawa	34.51667	-16	3_pdf.txt	Chikwawa
Chikwawa	34.51667	-16	42_jpg.txt	Chikwawa
Chikwawa	34.51667	-16	42_pdf.txt	Chikwawa
Chikwawa	34.51667	-16	52_pdf.txt	Chikwawa
Chikwawa	34.51667	-16	58_pdf.txt	Chikwawa
Chikwawa	34.51667	-16	67_pdf.txt	Chikwawa
Chikwawa	34.51667	-16	80_pdf.txt	Chikwawa
Chikwawa	34.51667	-16	86_jpg.txt	Chikwawa
Chikwawa	34.51667	-16	89_pdf.txt	Chikwawa
Chikwawa	34.51667	-16	93_pdf.txt	Chikwawa
Chikwawa	34.51667	-16	Food_Security_and_Agriculture_Project_List_from_MoAFS_March_2011.csv	Chikwawa
Chikwawa	34.51667	-16	IGPWP_Roads_project_sites0.csv	Chikwawa
Chikwawa	34.51667	-16	IGPWP_Roads_project_sites1.csv	Chikwawa
Chikwawa	34.51667	-16	IGPWP_Roads_project_sites.csv	Chikwawa
Chikweo	35.66906	-14.76481	28_pdf.txt	Chikweo
Chikweo	35.66906	-14.76481	42_pdf.txt	Chikweo
Chikwina	34.17239	-11.39792	215_pdf.txt	Chikwina
Chikwina	34.17239	-11.39792	247_pdf.txt	Chikwina
Chikwina	34.17239	-11.39792	52_pdf.txt	Chikwina
Chilala	35.52478	-14.89284	IGPWP_Roads_project_sites0.csv	Chilala
Chilala	35.52478	-14.89284	IGPWP_Roads_project_sites1.csv	Chilala
Chilala	35.52478	-14.89284	IGPWP_Roads_project_sites.csv	Chilala
Chilambe	35.43333	-15.28333	12_pdf.txt	Chilambe
Chilambe	35.43333	-15.28333	192_pdf.txt	Chilambe
Chilambe	35.43333	-15.28333	193_pdf.txt	Chilambe
Chilanga	35.18879	-14.99784	2_pdf.txt	Chilanga
Chilanga	35.18879	-14.99784	41_pdf.txt	Chilanga
Chilawo	33.66191	-12.34334	IGPWP_Forestry_Project_sites0.csv	Chilawo
Chilawo	33.66191	-12.34334	IGPWP_Forestry_Project_sites1.csv	Chilawo
Chilawo	33.66191	-12.34334	IGPWP_Forestry_Project_sites.csv	Chilawo
Chileka	34.43481	-15.97734	208_pdf.txt	Chileka
Chileka	34.43481	-15.97734	215_pdf.txt	Chileka
Chileka	34.43481	-15.97734	52_pdf.txt	Chileka
Chileka	34.43481	-15.97734	55_pdf.txt	Chileka
Chileka	34.43481	-15.97734	IGPWP_Roads_project_sites0.csv	Chileka
Chileka	34.43481	-15.97734	IGPWP_Roads_project_sites1.csv	Chileka
Chileka	34.43481	-15.97734	IGPWP_Roads_project_sites.csv	Chileka
Chilemba	35.53356	-15.96198	IGPWP_Forestry_Project_sites0.csv	Chilemba
Chilemba	35.53356	-15.96198	IGPWP_Forestry_Project_sites1.csv	Chilemba
Chilemba	35.53356	-15.96198	IGPWP_Forestry_Project_sites.csv	Chilemba
Chilembwe	33.93333	-14.21667	208_pdf.txt	Chilembwe
Chilembwe	33.93333	-14.21667	55_pdf.txt	Chilembwe
Chilikumwendo	33.95	-14.21667	242_pdf.txt	Chilikumwendo
Chilikumwendo	33.95	-14.21667	244_pdf.txt	Chilikumwendo
Chilima	33.98333	-14.06667	30_pdf.txt	Chilima
Chimaliro	35.23333	-15.63333	215_pdf.txt	Chimaliro
Chimaliro	35.23333	-15.63333	30_pdf.txt	Chimaliro
Chimaliro	35.23333	-15.63333	52_pdf.txt	Chimaliro
Chimbadzo	33	-13.81667	IGPWP_Forestry_Project_sites0.csv	Chimbadzo
Chimbadzo	33	-13.81667	IGPWP_Forestry_Project_sites1.csv	Chimbadzo
Chimbadzo	33	-13.81667	IGPWP_Forestry_Project_sites.csv	Chimbadzo
Chimembe	34.96667	-15.91667	IGPWP_Roads_project_sites0.csv	Chimembe
Chimembe	34.96667	-15.91667	IGPWP_Roads_project_sites1.csv	Chimembe
Chimembe	34.96667	-15.91667	IGPWP_Roads_project_sites.csv	Chimembe
Chimkoka	33.65	-13.31667	215_pdf.txt	Chimkoka
Chimkoka	33.65	-13.31667	52_pdf.txt	Chimkoka
Chimombo	35.23333	-17.01667	197_pdf.txt	Chimombo
Chimombo	35.23333	-17.01667	46_pdf.txt	Chimombo
Chimombo	35.23333	-17.01667	IGPWP_Forestry_Project_sites0.csv	Chimombo
Chimombo	35.23333	-17.01667	IGPWP_Forestry_Project_sites1.csv	Chimombo
Chimombo	35.23333	-17.01667	IGPWP_Forestry_Project_sites.csv	Chimombo
Chimutu	33.81667	-14.06667	36_pdf.txt	Chimutu
Chimutu	33.81667	-14.06667	IGPWP_Forestry_Project_sites0.csv	Chimutu
Chimutu	33.81667	-14.06667	IGPWP_Forestry_Project_sites1.csv	Chimutu
Chimutu	33.81667	-14.06667	IGPWP_Forestry_Project_sites.csv	Chimutu
Chintheche	34.21667	-11.78333	215_pdf.txt	Chintheche
Chintheche	34.21667	-11.78333	52_pdf.txt	Chintheche
Chinyamunyamu	33.43333	-13.06667	101_pdf.txt	Chinyamunyamu
Chinyamunyamu	33.43333	-13.06667	164_pdf.txt	Chinyamunyamu
Chinzama	35.66217	-15.90818	215_pdf.txt	Chinzama
Chinzama	35.66217	-15.90818	30_pdf.txt	Chinzama
Chinzama	35.66217	-15.90818	52_pdf.txt	Chinzama
Chinzama	35.66217	-15.90818	IGPWP_Roads_project_sites0.csv	Chinzama
Chinzama	35.66217	-15.90818	IGPWP_Roads_project_sites1.csv	Chinzama
Chinzama	35.66217	-15.90818	IGPWP_Roads_project_sites.csv	Chinzama
Chipeni	33.85	-14.21667	30_pdf.txt	Chipeni
Chipoka	33.45	-14.11667	32_pdf.txt	Chipoka
Chipolonga	35.68333	-14.85	42_pdf.txt	Chipolonga
Chiradzulu	35.14071	-15.67461	215_pdf.txt	Chiradzulu
Chiradzulu	35.14071	-15.67461	216_pdf.txt	Chiradzulu
Chiradzulu	35.14071	-15.67461	236_pdf.txt	Chiradzulu
Chiradzulu	35.14071	-15.67461	239_pdf.txt	Chiradzulu
Chiradzulu	35.14071	-15.67461	241_pdf.txt	Chiradzulu
Chiradzulu	35.14071	-15.67461	246_pdf.txt	Chiradzulu
Chiradzulu	35.14071	-15.67461	247_pdf.txt	Chiradzulu
Chiradzulu	35.14071	-15.67461	29_pdf.txt	Chiradzulu
Chiradzulu	35.14071	-15.67461	2_pdf.txt	Chiradzulu
Chiradzulu	35.14071	-15.67461	37_pdf.txt	Chiradzulu
Chiradzulu	35.14071	-15.67461	41_pdf.txt	Chiradzulu
Chiradzulu	35.14071	-15.67461	42_pdf.txt	Chiradzulu
Chiradzulu	35.14071	-15.67461	52_pdf.txt	Chiradzulu
Chiradzulu	35.14071	-15.67461	5_pdf.txt	Chiradzulu
Chiradzulu	35.14071	-15.67461	60_pdf.txt	Chiradzulu
Chiradzulu	35.14071	-15.67461	Food_Security_and_Agriculture_Project_List_from_MoAFS_March_2011.csv	Chiradzulu
Chiradzulu	35.14071	-15.67461	IGPWP_Roads_project_sites0.csv	Chiradzulu
Chiradzulu	35.14071	-15.67461	IGPWP_Roads_project_sites1.csv	Chiradzulu
Chiradzulu	35.14071	-15.67461	IGPWP_Roads_project_sites.csv	Chiradzulu
Chiripa	33.71667	-12.91667	215_pdf.txt	Chiripa
Chiripa	33.71667	-12.91667	52_pdf.txt	Chiripa
Chiromo	35.15566	-16.54675	18_pdf.txt	Chiromo
Chiromo	35.15566	-16.54675	208_pdf.txt	Chiromo
Chiromo	35.15566	-16.54675	55_pdf.txt	Chiromo
Chirwa	33.51388	-12.64344	192_pdf.txt	Chirwa
Chirwa	33.51388	-12.64344	193_pdf.txt	Chirwa
Chirwa	33.51388	-12.64344	197_pdf.txt	Chirwa
Chirwa	33.51388	-12.64344	208_pdf.txt	Chirwa
Chirwa	33.51388	-12.64344	46_pdf.txt	Chirwa
Chirwa	33.51388	-12.64344	48_pdf.txt	Chirwa
Chirwa	33.51388	-12.64344	49_pdf.txt	Chirwa
Chirwa	33.51388	-12.64344	55_pdf.txt	Chirwa
Chisamba	34.4	-13.78333	IGPWP_Forestry_Project_sites0.csv	Chisamba
Chisamba	34.4	-13.78333	IGPWP_Forestry_Project_sites1.csv	Chisamba
Chisamba	34.4	-13.78333	IGPWP_Forestry_Project_sites.csv	Chisamba
Chisitu	33.33062	-14.12802	IGPWP_Roads_project_sites0.csv	Chisitu
Chisitu	33.33062	-14.12802	IGPWP_Roads_project_sites1.csv	Chisitu
Chisitu	33.33062	-14.12802	IGPWP_Roads_project_sites.csv	Chisitu
Chisoka	35.25819	-15.93771	IGPWP_Roads_project_sites0.csv	Chisoka
Chisoka	35.25819	-15.93771	IGPWP_Roads_project_sites1.csv	Chisoka
Chisoka	35.25819	-15.93771	IGPWP_Roads_project_sites.csv	Chisoka
Chisuwi	35.45675	-14.97038	28_pdf.txt	Chisuwi
Chisuwi	35.45675	-14.97038	42_pdf.txt	Chisuwi
Chitala	34.27009	-13.67381	148_pdf.txt	Chitala
Chitala	34.27009	-13.67381	91_pdf.txt	Chitala
Chitala	34.27009	-13.67381	Food_Security_and_Agriculture_Project_List_from_MoAFS_March_2011.csv	Chitala
Chitedze	33.66607	-14.21697	115_pdf.txt	Chitedze
Chitedze	33.66607	-14.21697	148_pdf.txt	Chitedze
Chitedze	33.66607	-14.21697	171_pdf.txt	Chitedze
Chitedze	33.66607	-14.21697	253_pdf.txt	Chitedze
Chitedze	33.66607	-14.21697	91_pdf.txt	Chitedze
Chitedze	33.66607	-14.21697	Food_Security_and_Agriculture_Project_List_from_MoAFS_March_2011.csv	Chitedze
Chitipa	33.26667	-9.7	105_pdf.txt	Chitipa
Chitipa	33.26667	-9.7	109_pdf.txt	Chitipa
Chitipa	33.26667	-9.7	139_pdf.txt	Chitipa
Chitipa	33.26667	-9.7	162_pdf.txt	Chitipa
Chitipa	33.26667	-9.7	189_pdf.txt	Chitipa
Chitipa	33.26667	-9.7	215_pdf.txt	Chitipa
Chitipa	33.26667	-9.7	216_pdf.txt	Chitipa
Chitipa	33.26667	-9.7	235_pdf.txt	Chitipa
Chitipa	33.26667	-9.7	236_pdf.txt	Chitipa
Chitipa	33.26667	-9.7	238_pdf.txt	Chitipa
Chitipa	33.26667	-9.7	242_pdf.txt	Chitipa
Chitipa	33.26667	-9.7	244_pdf.txt	Chitipa
Chitipa	33.26667	-9.7	245_pdf.txt	Chitipa
Chitipa	33.26667	-9.7	246_pdf.txt	Chitipa
Chitipa	33.26667	-9.7	247_pdf.txt	Chitipa
Chitipa	33.26667	-9.7	251_pdf.txt	Chitipa
Chitipa	33.26667	-9.7	25_pdf.txt	Chitipa
Chitipa	33.26667	-9.7	35_pdf.txt	Chitipa
Chitipa	33.26667	-9.7	36_pdf.txt	Chitipa
Chitipa	33.26667	-9.7	3_pdf.txt	Chitipa
Chitipa	33.26667	-9.7	42_jpg.txt	Chitipa
Chitipa	33.26667	-9.7	42_pdf.txt	Chitipa
Chitipa	33.26667	-9.7	52_pdf.txt	Chitipa
Chitipa	33.26667	-9.7	60_pdf.txt	Chitipa
Chitipa	33.26667	-9.7	86_jpg.txt	Chitipa
Chitipa	33.26667	-9.7	89_pdf.txt	Chitipa
Chitipa	33.26667	-9.7	Food_Security_and_Agriculture_Project_List_from_MoAFS_March_2011.csv	Chitipa
Chitsa	35.28333	-17.03333	2_pdf.txt	Chitsa
Chitsa	35.28333	-17.03333	41_pdf.txt	Chitsa
Chitseko	35.17013	-16.43577	215_pdf.txt	Chitseko
Chitseko	35.17013	-16.43577	52_pdf.txt	Chitseko
Chitukula	35.58333	-15.75	215_pdf.txt	Chitukula
Chitukula	35.58333	-15.75	36_pdf.txt	Chitukula
Chitukula	35.58333	-15.75	52_pdf.txt	Chitukula
Chitundu	35.66116	-14.9193	Food_Security_and_Agriculture_Project_List_from_MoAFS_March_2011.csv	Chitundu
Chiweta	34.20708	-11.20422	208_pdf.txt	Chiweta
Chiweta	34.20708	-11.20422	55_pdf.txt	Chiweta
Chiwoko	33.81667	-13.98333	IGPWP_Forestry_Project_sites0.csv	Chiwoko
Chiwoko	33.81667	-13.98333	IGPWP_Forestry_Project_sites1.csv	Chiwoko
Chiwoko	33.81667	-13.98333	IGPWP_Forestry_Project_sites.csv	Chiwoko
Chizenga	34.8	-16.45	IGPWP_Roads_project_sites0.csv	Chizenga
Chizenga	34.8	-16.45	IGPWP_Roads_project_sites1.csv	Chizenga
Chizenga	34.8	-16.45	IGPWP_Roads_project_sites.csv	Chizenga
Choma	33.46667	-13.65	215_pdf.txt	Choma
Choma	33.46667	-13.65	52_pdf.txt	Choma
Chombe	34.13333	-11.65	215_pdf.txt	Chombe
Chombe	34.13333	-11.65	52_pdf.txt	Chombe
Chonde	35.31861	-16.00269	215_pdf.txt	Chonde
Chonde	35.31861	-16.00269	52_pdf.txt	Chonde
Chonde	35.31861	-16.00269	IGPWP_Roads_project_sites0.csv	Chonde
Chonde	35.31861	-16.00269	IGPWP_Roads_project_sites1.csv	Chonde
Chonde	35.31861	-16.00269	IGPWP_Roads_project_sites.csv	Chonde
Chulu	33.66667	-13.7	249_pdf.txt	Chulu
Chungu	33.34962	-13.81648	215_pdf.txt	Chungu
Chungu	33.34962	-13.81648	52_pdf.txt	Chungu
Dambalika	33.66958	-13.21168	IGPWP_Forestry_Project_sites0.csv	Dambalika
Dambalika	33.66958	-13.21168	IGPWP_Forestry_Project_sites1.csv	Dambalika
Dambalika	33.66958	-13.21168	IGPWP_Forestry_Project_sites.csv	Dambalika
Danda	33.95	-14.11667	256_pdf.txt	Danda
Dedza	34.31667	-14.38333	139_pdf.txt	Dedza
Dedza	34.31667	-14.38333	143_pdf.txt	Dedza
Dedza	34.31667	-14.38333	144_pdf.txt	Dedza
Dedza	34.31667	-14.38333	147_pdf.txt	Dedza
Dedza	34.31667	-14.38333	148_pdf.txt	Dedza
Dedza	34.31667	-14.38333	195_pdf.txt	Dedza
Dedza	34.31667	-14.38333	197_pdf.txt	Dedza
Dedza	34.31667	-14.38333	215_pdf.txt	Dedza
Dedza	34.31667	-14.38333	222_pdf.txt	Dedza
Dedza	34.31667	-14.38333	232_pdf.txt	Dedza
Dedza	34.31667	-14.38333	235_pdf.txt	Dedza
Dedza	34.31667	-14.38333	236_pdf.txt	Dedza
Dedza	34.31667	-14.38333	246_pdf.txt	Dedza
Dedza	34.31667	-14.38333	247_pdf.txt	Dedza
Dedza	34.31667	-14.38333	36_pdf.txt	Dedza
Dedza	34.31667	-14.38333	3_pdf.txt	Dedza
Dedza	34.31667	-14.38333	42_jpg.txt	Dedza
Dedza	34.31667	-14.38333	42_pdf.txt	Dedza
Dedza	34.31667	-14.38333	45_pdf.txt	Dedza
Dedza	34.31667	-14.38333	46_pdf.txt	Dedza
Dedza	34.31667	-14.38333	52_pdf.txt	Dedza
Dedza	34.31667	-14.38333	67_pdf.txt	Dedza
Dedza	34.31667	-14.38333	6_pdf.txt	Dedza
Dedza	34.31667	-14.38333	76_pdf.txt	Dedza
Dedza	34.31667	-14.38333	86_jpg.txt	Dedza
Dedza	34.31667	-14.38333	86_pdf.txt	Dedza
Dedza	34.31667	-14.38333	88_pdf.txt	Dedza
Dedza	34.31667	-14.38333	89_pdf.txt	Dedza
Dedza	34.31667	-14.38333	90_pdf.txt	Dedza
Dedza	34.31667	-14.38333	91_pdf.txt	Dedza
Dedza	34.31667	-14.38333	Food_Security_and_Agriculture_Project_List_from_MoAFS_March_2011.csv	Dedza
Dedza	34.31667	-14.38333	Malawi_DFID_Assignments.csv	Dedza
Dedza	34.31667	-14.38333	Malawi_DFID_Assignments-Hanna_Murphy-Pack_s_conflicted_copy_2012-04-01-.csv	Dedza
Domasi	35.39904	-15.2772	14_pdf.txt	Domasi
Domasi	35.39904	-15.2772	15_pdf.txt	Domasi
Domasi	35.39904	-15.2772	197_pdf.txt	Domasi
Domasi	35.39904	-15.2772	235_pdf.txt	Domasi
Domasi	35.39904	-15.2772	236_pdf.txt	Domasi
Domasi	35.39904	-15.2772	242_pdf.txt	Domasi
Domasi	35.39904	-15.2772	244_pdf.txt	Domasi
Domasi	35.39904	-15.2772	246_pdf.txt	Domasi
Domasi	35.39904	-15.2772	46_pdf.txt	Domasi
Dowa	33.93864	-13.65337	139_pdf.txt	Dowa
Dowa	33.93864	-13.65337	148_pdf.txt	Dowa
Dowa	33.93864	-13.65337	206_pdf.txt	Dowa
Dowa	33.93864	-13.65337	215_pdf.txt	Dowa
Dowa	33.93864	-13.65337	216_pdf.txt	Dowa
Dowa	33.93864	-13.65337	235_pdf.txt	Dowa
Dowa	33.93864	-13.65337	236_pdf.txt	Dowa
Dowa	33.93864	-13.65337	242_pdf.txt	Dowa
Dowa	33.93864	-13.65337	244_pdf.txt	Dowa
Dowa	33.93864	-13.65337	246_pdf.txt	Dowa
Dowa	33.93864	-13.65337	247_pdf.txt	Dowa
Dowa	33.93864	-13.65337	253_pdf.txt	Dowa
Dowa	33.93864	-13.65337	36_pdf.txt	Dowa
Dowa	33.93864	-13.65337	42_pdf.txt	Dowa
Dowa	33.93864	-13.65337	52_pdf.txt	Dowa
Dowa	33.93864	-13.65337	53_pdf.txt	Dowa
Dowa	33.93864	-13.65337	60_pdf.txt	Dowa
Dowa	33.93864	-13.65337	89_pdf.txt	Dowa
Dowa	33.93864	-13.65337	91_pdf.txt	Dowa
Dowa	33.93864	-13.65337	Food_Security_and_Agriculture_Project_List_from_MoAFS_March_2011.csv	Dowa
Dwangwa	34.15	-12.56667	134_pdf.txt	Dwangwa
Dwangwa	34.15	-12.56667	188_pdf.txt	Dwangwa
Dwangwa	34.15	-12.56667	209_pdf.txt	Dwangwa
Dwangwa	34.15	-12.56667	215_pdf.txt	Dwangwa
Dwangwa	34.15	-12.56667	216_pdf.txt	Dwangwa
Dwangwa	34.15	-12.56667	222_pdf.txt	Dwangwa
Dwangwa	34.15	-12.56667	233_pdf.txt	Dwangwa
Dwangwa	34.15	-12.56667	52_pdf.txt	Dwangwa
Dwangwa	34.15	-12.56667	58_pdf.txt	Dwangwa
Dwangwa	34.15	-12.56667	60_pdf.txt	Dwangwa
Dwangwa	34.15	-12.56667	67_pdf.txt	Dwangwa
Dwangwa	34.15	-12.56667	6_pdf.txt	Dwangwa
Dwangwa	34.15	-12.56667	78_pdf.txt	Dwangwa
Dwangwa	34.15	-12.56667	Food_Security_and_Agriculture_Project_List_from_MoAFS_March_2011.csv	Dwangwa
Edwin	35.22756	-16.94809	112_pdf.txt	Edwin
Edwin	35.22756	-16.94809	154_pdf.txt	Edwin
Ekwendeni	33.88092	-11.36847	215_pdf.txt	Ekwendeni
Ekwendeni	33.88092	-11.36847	52_pdf.txt	Ekwendeni
Elisa	33.68333	-13.4	39_pdf.txt	Elisa
Emfeni	33.58777	-12.58942	249_pdf.txt	Emfeni
Emfeni	33.58777	-12.58942	Food_Security_and_Agriculture_Project_List_from_MoAFS_March_2011.csv	Emfeni
Engalaweni	33.36667	-11.9	215_pdf.txt	Engalaweni
Engalaweni	33.36667	-11.9	52_pdf.txt	Engalaweni
Engucwini	33.8245	-11.19759	215_pdf.txt	Engucwini
Engucwini	33.8245	-11.19759	52_pdf.txt	Engucwini
Filimoni	33.61667	-14.33333	IGPWP_Forestry_Project_sites0.csv	Filimoni
Filimoni	33.61667	-14.33333	IGPWP_Forestry_Project_sites1.csv	Filimoni
Filimoni	33.61667	-14.33333	IGPWP_Forestry_Project_sites.csv	Filimoni
Foo	33.41667	-13.33333	122_pdf.txt	Foo
Foo	33.41667	-13.33333	179_pdf.txt	Foo
Fungwe	33.77675	-12.97305	IGPWP_Forestry_Project_sites0.csv	Fungwe
Fungwe	33.77675	-12.97305	IGPWP_Forestry_Project_sites1.csv	Fungwe
Fungwe	33.77675	-12.97305	IGPWP_Forestry_Project_sites.csv	Fungwe
Gomani	32.98333	-13.81667	105_pdf.txt	Gomani
Gomani	32.98333	-13.81667	162_pdf.txt	Gomani
Gomani	32.98333	-13.81667	237_pdf.txt	Gomani
Gomani	32.98333	-13.81667	240_pdf.txt	Gomani
Gomani	32.98333	-13.81667	IGPWP_Forestry_Project_sites0.csv	Gomani
Gomani	32.98333	-13.81667	IGPWP_Forestry_Project_sites1.csv	Gomani
Gomani	32.98333	-13.81667	IGPWP_Forestry_Project_sites.csv	Gomani
Gondwe	33.46667	-11.36667	3_pdf.txt	Gondwe
Gunda	33.7	-14.36667	42_pdf.txt	Gunda
Gwede	33.74525	-13.64714	IGPWP_Forestry_Project_sites0.csv	Gwede
Gwede	33.74525	-13.64714	IGPWP_Forestry_Project_sites1.csv	Gwede
Gwede	33.74525	-13.64714	IGPWP_Forestry_Project_sites.csv	Gwede
Isaac	33.68333	-13.36667	210_pdf.txt	Isaac
Isaac	33.68333	-13.36667	30_pdf.txt	Isaac
Isaac	33.68333	-13.36667	57_pdf.txt	Isaac
Jere	34.36667	-14.4	208_pdf.txt	Jere
Jere	34.36667	-14.4	215_pdf.txt	Jere
Jere	34.36667	-14.4	52_pdf.txt	Jere
Jere	34.36667	-14.4	55_pdf.txt	Jere
Jim	33.51667	-13.33333	149_pdf.txt	Jim
Jim	33.51667	-13.33333	199_pdf.txt	Jim
Jim	33.51667	-13.33333	201_pdf.txt	Jim
Jim	33.51667	-13.33333	23_pdf.txt	Jim
Jim	33.51667	-13.33333	30_pdf.txt	Jim
Jim	33.51667	-13.33333	93_pdf.txt	Jim
Jojo	34	-13.7	IGPWP_Roads_project_sites0.csv	Jojo
Jojo	34	-13.7	IGPWP_Roads_project_sites1.csv	Jojo
Jojo	34	-13.7	IGPWP_Roads_project_sites.csv	Jojo
Jumbe	35.00161	-15.82284	30_pdf.txt	Jumbe
Jumbe	35.00161	-15.82284	IGPWP_Roads_project_sites0.csv	Jumbe
Jumbe	35.00161	-15.82284	IGPWP_Roads_project_sites1.csv	Jumbe
Jumbe	35.00161	-15.82284	IGPWP_Roads_project_sites.csv	Jumbe
Jumpha	33.78333	-13.66667	IGPWP_Forestry_Project_sites0.csv	Jumpha
Jumpha	33.78333	-13.66667	IGPWP_Forestry_Project_sites1.csv	Jumpha
Jumpha	33.78333	-13.66667	IGPWP_Forestry_Project_sites.csv	Jumpha
Kabula	34.99572	-15.76984	197_pdf.txt	Kabula
Kabula	34.99572	-15.76984	46_pdf.txt	Kabula
Kachala	33.76667	-14.05	IGPWP_Forestry_Project_sites0.csv	Kachala
Kachala	33.76667	-14.05	IGPWP_Forestry_Project_sites1.csv	Kachala
Kachala	33.76667	-14.05	IGPWP_Forestry_Project_sites.csv	Kachala
Kachere	34.11667	-14.41667	144_pdf.txt	Kachere
Kachere	34.11667	-14.41667	186_pdf.txt	Kachere
Kachere	34.11667	-14.41667	88_pdf.txt	Kachere
Kachere	34.11667	-14.41667	96_pdf.txt	Kachere
Kachere	34.11667	-14.41667	IGPWP_Irrigation_Projects_sites0.csv	Kachere
Kachere	34.11667	-14.41667	IGPWP_Irrigation_Projects_sites1.csv	Kachere
Kachere	34.11667	-14.41667	IGPWP_Irrigation_Projects_sites.csv	Kachere
Kachere	34.11667	-14.41667	IGPWP_Roads_project_sites0.csv	Kachere
Kachere	34.11667	-14.41667	IGPWP_Roads_project_sites1.csv	Kachere
Kachere	34.11667	-14.41667	IGPWP_Roads_project_sites.csv	Kachere
Kachule	34.07037	-14.31469	215_pdf.txt	Kachule
Kachule	34.07037	-14.31469	52_pdf.txt	Kachule
Kachule	34.07037	-14.31469	IGPWP_Forestry_Project_sites0.csv	Kachule
Kachule	34.07037	-14.31469	IGPWP_Forestry_Project_sites1.csv	Kachule
Kachule	34.07037	-14.31469	IGPWP_Forestry_Project_sites.csv	Kachule
Kachulu	34.52869	-13.6111	215_pdf.txt	Kachulu
Kachulu	34.52869	-13.6111	28_pdf.txt	Kachulu
Kachulu	34.52869	-13.6111	42_pdf.txt	Kachulu
Kachulu	34.52869	-13.6111	52_pdf.txt	Kachulu
Kadzuwa	32.92742	-13.52028	2_pdf.txt	Kadzuwa
Kadzuwa	32.92742	-13.52028	41_pdf.txt	Kadzuwa
Kaigwazanga	32.92732	-13.63148	238_pdf.txt	Kaigwazanga
Kaigwazanga	32.92732	-13.63148	245_pdf.txt	Kaigwazanga
Kalembo	35.1692	-14.84465	10_pdf.txt	Kalembo
Kalembo	35.1692	-14.84465	Food_Security_and_Agriculture_Project_List_from_MoAFS_March_2011.csv	Kalembo
Kalikwembe	33.46304	-12.88987	149_pdf.txt	Kalikwembe
Kalikwembe	33.46304	-12.88987	93_pdf.txt	Kalikwembe
Kalima	32.98333	-13.76667	IGPWP_Roads_project_sites0.csv	Kalima
Kalima	32.98333	-13.76667	IGPWP_Roads_project_sites1.csv	Kalima
Kalima	32.98333	-13.76667	IGPWP_Roads_project_sites.csv	Kalima
Kalira	33.96667	-13.48333	Food_Security_and_Agriculture_Project_List_from_MoAFS_March_2011.csv	Kalira
Kalonga	34.83333	-15.03333	IGPWP_Forestry_Project_sites0.csv	Kalonga
Kalonga	34.83333	-15.03333	IGPWP_Forestry_Project_sites1.csv	Kalonga
Kalonga	34.83333	-15.03333	IGPWP_Forestry_Project_sites.csv	Kalonga
Kaluluma	33.51958	-12.57827	192_pdf.txt	Kaluluma
Kaluluma	33.51958	-12.57827	193_pdf.txt	Kaluluma
Kaluluma	33.51958	-12.57827	249_pdf.txt	Kaluluma
Kalumba	33.81667	-14.21667	215_pdf.txt	Kalumba
Kalumba	33.81667	-14.21667	52_pdf.txt	Kalumba
Kalumba	33.81667	-14.21667	IGPWP_Forestry_Project_sites0.csv	Kalumba
Kalumba	33.81667	-14.21667	IGPWP_Forestry_Project_sites1.csv	Kalumba
Kalumba	33.81667	-14.21667	IGPWP_Forestry_Project_sites.csv	Kalumba
Kalumbu	33.94709	-14.13513	186_pdf.txt	Kalumbu
Kalumbu	33.94709	-14.13513	96_pdf.txt	Kalumbu
Kaluwa	33.41057	-12.84035	197_pdf.txt	Kaluwa
Kaluwa	33.41057	-12.84035	46_pdf.txt	Kaluwa
Kalwe	34.23333	-11.6	207_pdf.txt	Kalwe
Kalwe	34.23333	-11.6	239_pdf.txt	Kalwe
Kalwe	34.23333	-11.6	241_pdf.txt	Kalwe
Kalwe	34.23333	-11.6	54_pdf.txt	Kalwe
Kamanga	33.40921	-13.70061	2_pdf.txt	Kamanga
Kamanga	33.40921	-13.70061	41_pdf.txt	Kamanga
Kamatila	33.41667	-12.85	IGPWP_Forestry_Project_sites0.csv	Kamatila
Kamatila	33.41667	-12.85	IGPWP_Forestry_Project_sites1.csv	Kamatila
Kamatila	33.41667	-12.85	IGPWP_Forestry_Project_sites.csv	Kamatila
Kambala	33.38333	-12.65	IGPWP_Forestry_Project_sites0.csv	Kambala
Kambala	33.38333	-12.65	IGPWP_Forestry_Project_sites1.csv	Kambala
Kambala	33.38333	-12.65	IGPWP_Forestry_Project_sites.csv	Kambala
Kambewa	33.25	-12.13333	43_jpg.txt	Kambewa
Kambewa	33.25	-12.13333	87_jpg.txt	Kambewa
Kambiri	35.03333	-15.93333	215_pdf.txt	Kambiri
Kambiri	35.03333	-15.93333	52_pdf.txt	Kambiri
Kameme	33.08333	-9.56667	242_pdf.txt	Kameme
Kameme	33.08333	-9.56667	244_pdf.txt	Kameme
Kamphandila	34.03333	-12.28333	IGPWP_Forestry_Project_sites0.csv	Kamphandila
Kamphandila	34.03333	-12.28333	IGPWP_Forestry_Project_sites1.csv	Kamphandila
Kamphandila	34.03333	-12.28333	IGPWP_Forestry_Project_sites.csv	Kamphandila
Kamsonga	33.7972	-13.27727	215_pdf.txt	Kamsonga
Kamsonga	33.7972	-13.27727	52_pdf.txt	Kamsonga
Kamwendo	34.01096	-13.80893	215_pdf.txt	Kamwendo
Kamwendo	34.01096	-13.80893	52_pdf.txt	Kamwendo
Kamwendo	34.01096	-13.80893	Food_Security_and_Agriculture_Project_List_from_MoAFS_March_2011.csv	Kamwendo
Kanengo	33.80163	-13.89487	208_pdf.txt	Kanengo
Kanengo	33.80163	-13.89487	36_pdf.txt	Kanengo
Kanengo	33.80163	-13.89487	55_pdf.txt	Kanengo
Kangulu	34.00675	-14.21641	IGPWP_Forestry_Project_sites0.csv	Kangulu
Kangulu	34.00675	-14.21641	IGPWP_Forestry_Project_sites1.csv	Kangulu
Kangulu	34.00675	-14.21641	IGPWP_Forestry_Project_sites.csv	Kangulu
Kangwere	32.95105	-13.71923	IGPWP_Forestry_Project_sites0.csv	Kangwere
Kangwere	32.95105	-13.71923	IGPWP_Forestry_Project_sites1.csv	Kangwere
Kangwere	32.95105	-13.71923	IGPWP_Forestry_Project_sites.csv	Kangwere
Kanjedza	35.04738	-15.81752	208_pdf.txt	Kanjedza
Kanjedza	35.04738	-15.81752	55_pdf.txt	Kanjedza
Kanyenda	34.36316	-14.21435	242_pdf.txt	Kanyenda
Kanyenda	34.36316	-14.21435	244_pdf.txt	Kanyenda
Kanyenda	34.36316	-14.21435	36_pdf.txt	Kanyenda
Kanyimbi	34.96667	-16.7	2_pdf.txt	Kanyimbi
Kanyimbi	34.96667	-16.7	41_pdf.txt	Kanyimbi
Kapeni	34.84322	-14.98392	IGPWP_Roads_project_sites0.csv	Kapeni
Kapeni	34.84322	-14.98392	IGPWP_Roads_project_sites1.csv	Kapeni
Kapeni	34.84322	-14.98392	IGPWP_Roads_project_sites.csv	Kapeni
Kapezi	33.38333	-13.7	215_pdf.txt	Kapezi
Kapezi	33.38333	-13.7	52_pdf.txt	Kapezi
Kaphaizi	33.41302	-13.0175	125_pdf.txt	Kaphaizi
Kaphaizi	33.41302	-13.0175	157_pdf.txt	Kaphaizi
Kaphiri	34.1	-14	IGPWP_Forestry_Project_sites0.csv	Kaphiri
Kaphiri	34.1	-14	IGPWP_Forestry_Project_sites1.csv	Kaphiri
Kaphiri	34.1	-14	IGPWP_Forestry_Project_sites.csv	Kaphiri
Kapichi	35.45	-15.25	37_pdf.txt	Kapichi
Kapichira	33.93333	-12.88333	IGPWP_Roads_project_sites0.csv	Kapichira
Kapichira	33.93333	-12.88333	IGPWP_Roads_project_sites1.csv	Kapichira
Kapichira	33.93333	-12.88333	IGPWP_Roads_project_sites.csv	Kapichira
Kapiri	33.4567	-14.01841	215_pdf.txt	Kapiri
Kapiri	33.4567	-14.01841	52_pdf.txt	Kapiri
Kapoka	33.53333	-9.75	215_pdf.txt	Kapoka
Kapoka	33.53333	-9.75	52_pdf.txt	Kapoka
Karonga	33.93333	-9.93333	139_pdf.txt	Karonga
Karonga	33.93333	-9.93333	143_pdf.txt	Karonga
Karonga	33.93333	-9.93333	147_pdf.txt	Karonga
Karonga	33.93333	-9.93333	148_pdf.txt	Karonga
Karonga	33.93333	-9.93333	206_pdf.txt	Karonga
Karonga	33.93333	-9.93333	215_pdf.txt	Karonga
Karonga	33.93333	-9.93333	216_pdf.txt	Karonga
Karonga	33.93333	-9.93333	222_pdf.txt	Karonga
Karonga	33.93333	-9.93333	235_pdf.txt	Karonga
Karonga	33.93333	-9.93333	236_pdf.txt	Karonga
Karonga	33.93333	-9.93333	246_pdf.txt	Karonga
Karonga	33.93333	-9.93333	247_pdf.txt	Karonga
Karonga	33.93333	-9.93333	25_pdf.txt	Karonga
Karonga	33.93333	-9.93333	35_pdf.txt	Karonga
Karonga	33.93333	-9.93333	39_pdf.txt	Karonga
Karonga	33.93333	-9.93333	3_pdf.txt	Karonga
Karonga	33.93333	-9.93333	42_jpg.txt	Karonga
Karonga	33.93333	-9.93333	42_pdf.txt	Karonga
Karonga	33.93333	-9.93333	52_pdf.txt	Karonga
Karonga	33.93333	-9.93333	53_pdf.txt	Karonga
Karonga	33.93333	-9.93333	60_pdf.txt	Karonga
Karonga	33.93333	-9.93333	67_pdf.txt	Karonga
Karonga	33.93333	-9.93333	86_jpg.txt	Karonga
Karonga	33.93333	-9.93333	86_pdf.txt	Karonga
Karonga	33.93333	-9.93333	89_pdf.txt	Karonga
Karonga	33.93333	-9.93333	90_pdf.txt	Karonga
Karonga	33.93333	-9.93333	91_pdf.txt	Karonga
Karonga	33.93333	-9.93333	Food_Security_and_Agriculture_Project_List_from_MoAFS_March_2011.csv	Karonga
Karonga	33.93333	-9.93333	IGPWP_Forestry_Project_sites0.csv	Karonga
Karonga	33.93333	-9.93333	IGPWP_Forestry_Project_sites1.csv	Karonga
Karonga	33.93333	-9.93333	IGPWP_Forestry_Project_sites.csv	Karonga
Karonga	33.93333	-9.93333	Malawi_DFID_Assignments.csv	Karonga
Karonga	33.93333	-9.93333	Malawi_DFID_Assignments-Hanna_Murphy-Pack_s_conflicted_copy_2012-04-01-.csv	Karonga
Kasakula	33.73333	-13.23333	215_pdf.txt	Kasakula
Kasakula	33.73333	-13.23333	52_pdf.txt	Kasakula
Kasangadzi	34.19196	-13.23089	207_pdf.txt	Kasangadzi
Kasangadzi	34.19196	-13.23089	215_pdf.txt	Kasangadzi
Kasangadzi	34.19196	-13.23089	52_pdf.txt	Kasangadzi
Kasangadzi	34.19196	-13.23089	54_pdf.txt	Kasangadzi
Kasangadzi	34.19196	-13.23089	Food_Security_and_Agriculture_Project_List_from_MoAFS_March_2011.csv	Kasangadzi
Kasinje	34.67625	-14.52656	215_pdf.txt	Kasinje
Kasinje	34.67625	-14.52656	52_pdf.txt	Kasinje
Kasiya	33.38333	-13.76667	203_pdf.txt	Kasiya
Kasiya	33.38333	-13.76667	204_pdf.txt	Kasiya
Kasiya	33.38333	-13.76667	205_pdf.txt	Kasiya
Kasiya	33.38333	-13.76667	242_pdf.txt	Kasiya
Kasiya	33.38333	-13.76667	244_pdf.txt	Kasiya
Kasiya	33.38333	-13.76667	Food_Security_and_Agriculture_Project_List_from_MoAFS_March_2011.csv	Kasiya
Kasumbu	34.35	-14.3	47_jpg.txt	Kasumbu
Kasumbu	34.35	-14.3	91_jpg.txt	Kasumbu
Kasumbu	34.35	-14.3	Food_Security_and_Agriculture_Project_List_from_MoAFS_March_2011.csv	Kasumbu
Kasumbu	34.35	-14.3	Malawi_DFID_Assignments.csv	Kasumbu
Kasumbu	34.35	-14.3	Malawi_DFID_Assignments-Hanna_Murphy-Pack_s_conflicted_copy_2012-04-01-.csv	Kasumbu
Kasunga	33.48	-13.033	249_pdf.txt	Kasunga
Kasungu	33.48333	-13.03333	139_pdf.txt	Kasungu
Kasungu	33.48333	-13.03333	147_pdf.txt	Kasungu
Kasungu	33.48333	-13.03333	186_pdf.txt	Kasungu
Kasungu	33.48333	-13.03333	207_pdf.txt	Kasungu
Kasungu	33.48333	-13.03333	211_pdf.txt	Kasungu
Kasungu	33.48333	-13.03333	215_pdf.txt	Kasungu
Kasungu	33.48333	-13.03333	235_pdf.txt	Kasungu
Kasungu	33.48333	-13.03333	236_pdf.txt	Kasungu
Kasungu	33.48333	-13.03333	242_pdf.txt	Kasungu
Kasungu	33.48333	-13.03333	244_pdf.txt	Kasungu
Kasungu	33.48333	-13.03333	246_pdf.txt	Kasungu
Kasungu	33.48333	-13.03333	247_pdf.txt	Kasungu
Kasungu	33.48333	-13.03333	249_pdf.txt	Kasungu
Kasungu	33.48333	-13.03333	250_pdf.txt	Kasungu
Kasungu	33.48333	-13.03333	253_pdf.txt	Kasungu
Kasungu	33.48333	-13.03333	36_pdf.txt	Kasungu
Kasungu	33.48333	-13.03333	39_pdf.txt	Kasungu
Kasungu	33.48333	-13.03333	42_jpg.txt	Kasungu
Kasungu	33.48333	-13.03333	42_pdf.txt	Kasungu
Kasungu	33.48333	-13.03333	52_pdf.txt	Kasungu
Kasungu	33.48333	-13.03333	54_pdf.txt	Kasungu
Kasungu	33.48333	-13.03333	59_pdf.txt	Kasungu
Kasungu	33.48333	-13.03333	6_pdf.txt	Kasungu
Kasungu	33.48333	-13.03333	86_jpg.txt	Kasungu
Kasungu	33.48333	-13.03333	89_pdf.txt	Kasungu
Kasungu	33.48333	-13.03333	90_pdf.txt	Kasungu
Kasungu	33.48333	-13.03333	96_pdf.txt	Kasungu
Kasungu	33.48333	-13.03333	FAO_mapping.csv	Kasungu
Kasungu	33.48333	-13.03333	Food_Security_and_Agriculture_Project_List_from_MoAFS_March_2011.csv	Kasungu
Katete	34.46667	-15.83333	215_pdf.txt	Katete
Katete	34.46667	-15.83333	250_pdf.txt	Katete
Katete	34.46667	-15.83333	52_pdf.txt	Katete
Katewe	33.9803	-14.31023	242_pdf.txt	Katewe
Katewe	33.9803	-14.31023	244_pdf.txt	Katewe
Katimbira	34.20031	-12.75124	Food_Security_and_Agriculture_Project_List_from_MoAFS_March_2011.csv	Katimbira
Katoto	34.00955	-11.45916	208_pdf.txt	Katoto
Katoto	34.00955	-11.45916	55_pdf.txt	Katoto
Katumbi	33.86667	-9.73333	36_pdf.txt	Katumbi
Kaunda	33.71667	-14.13333	192_pdf.txt	Kaunda
Kaunda	33.71667	-14.13333	193_pdf.txt	Kaunda
Kaunda	33.71667	-14.13333	208_pdf.txt	Kaunda
Kaunda	33.71667	-14.13333	30_pdf.txt	Kaunda
Kaunda	33.71667	-14.13333	32_pdf.txt	Kaunda
Kaunda	33.71667	-14.13333	36_pdf.txt	Kaunda
Kaunda	33.71667	-14.13333	55_pdf.txt	Kaunda
Kawa	35.75	-14.95	2_pdf.txt	Kawa
Kawa	35.75	-14.95	41_pdf.txt	Kawa
Kawalazi	34.1	-11.7	215_pdf.txt	Kawalazi
Kawalazi	34.1	-11.7	52_pdf.txt	Kawalazi
Kawaye	33.43333	-13.08333	168_pdf.txt	Kawaye
Kawaye	33.43333	-13.08333	84_pdf.txt	Kawaye
Kawaye	33.43333	-13.08333	IGPWP_Irrigation_Projects_sites0.csv	Kawaye
Kawaye	33.43333	-13.08333	IGPWP_Irrigation_Projects_sites1.csv	Kawaye
Kawaye	33.43333	-13.08333	IGPWP_Irrigation_Projects_sites.csv	Kawaye
Kawere	32.95503	-13.58367	215_pdf.txt	Kawere
Kawere	32.95503	-13.58367	52_pdf.txt	Kawere
Kawere	32.95503	-13.58367	IGPWP_Forestry_Project_sites0.csv	Kawere
Kawere	32.95503	-13.58367	IGPWP_Forestry_Project_sites1.csv	Kawere
Kawere	32.95503	-13.58367	IGPWP_Forestry_Project_sites.csv	Kawere
Kawinga	35.55	-14.85	14_pdf.txt	Kawinga
Kawinga	35.55	-14.85	15_pdf.txt	Kawinga
Kawinga	35.55	-14.85	42_pdf.txt	Kawinga
Kawiya	33.5	-12.83333	6_pdf.txt	Kawiya
Kayembe	33.5	-13.66667	30_pdf.txt	Kayembe
Kayembe	33.5	-13.66667	36_pdf.txt	Kayembe
Kayembe	33.5	-13.66667	IGPWP_Forestry_Project_sites0.csv	Kayembe
Kayembe	33.5	-13.66667	IGPWP_Forestry_Project_sites1.csv	Kayembe
Kayembe	33.5	-13.66667	IGPWP_Forestry_Project_sites.csv	Kayembe
Kazembe	33.75	-13.7	206_pdf.txt	Kazembe
Kazembe	33.75	-13.7	2_pdf.txt	Kazembe
Kazembe	33.75	-13.7	41_pdf.txt	Kazembe
Kazembe	33.75	-13.7	53_pdf.txt	Kazembe
Khombe	33.98333	-14.18333	IGPWP_Forestry_Project_sites0.csv	Khombe
Khombe	33.98333	-14.18333	IGPWP_Forestry_Project_sites1.csv	Khombe
Khombe	33.98333	-14.18333	IGPWP_Forestry_Project_sites.csv	Khombe
Khongoloni	35.64072	-15.57686	242_pdf.txt	Khongoloni
Khongoloni	35.64072	-15.57686	244_pdf.txt	Khongoloni
Khuyu	33.8	-12.83333	Food_Security_and_Agriculture_Project_List_from_MoAFS_March_2011.csv	Khuyu
Kulemeka	34.43333	-14.4	197_pdf.txt	Kulemeka
Kulemeka	34.43333	-14.4	239_pdf.txt	Kulemeka
Kulemeka	34.43333	-14.4	241_pdf.txt	Kulemeka
Kulemeka	34.43333	-14.4	46_pdf.txt	Kulemeka
Kumwenda	33.51667	-11.6	123_pdf.txt	Kumwenda
Kumwenda	33.51667	-11.6	177_pdf.txt	Kumwenda
Kumwenda	33.51667	-11.6	33_pdf.txt	Kumwenda
Kunyinda	34.73333	-16.5	Food_Security_and_Agriculture_Project_List_from_MoAFS_March_2011.csv	Kunyinda
Kwisimba	35.34104	-14.65061	215_pdf.txt	Kwisimba
Kwisimba	35.34104	-14.65061	52_pdf.txt	Kwisimba
Lichenya	35.83333	-15.55	30_pdf.txt	Lichenya
Lichenya	35.83333	-15.55	IGPWP_Roads_project_sites0.csv	Lichenya
Lichenya	35.83333	-15.55	IGPWP_Roads_project_sites1.csv	Lichenya
Lichenya	35.83333	-15.55	IGPWP_Roads_project_sites.csv	Lichenya
Likoma	34.73333	-12.06667	109_pdf.txt	Likoma
Likoma	34.73333	-12.06667	189_pdf.txt	Likoma
Likoma	34.73333	-12.06667	236_pdf.txt	Likoma
Likoma	34.73333	-12.06667	246_pdf.txt	Likoma
Likoma	34.73333	-12.06667	247_pdf.txt	Likoma
Likoma	34.73333	-12.06667	Food_Security_and_Agriculture_Project_List_from_MoAFS_March_2011.csv	Likoma
Likuni	33.70524	-14.02266	208_pdf.txt	Likuni
Likuni	33.70524	-14.02266	55_pdf.txt	Likuni
Likuni	33.70524	-14.02266	Food_Security_and_Agriculture_Project_List_from_MoAFS_March_2011.csv	Likuni
Lilongwe	35.11667	-15.95	100_pdf.txt	Lilongwe
Lilongwe	35.11667	-15.95	101_pdf.txt	Lilongwe
Lilongwe	35.11667	-15.95	102_pdf.txt	Lilongwe
Lilongwe	35.11667	-15.95	103_pdf.txt	Lilongwe
Lilongwe	35.11667	-15.95	104_pdf.txt	Lilongwe
Lilongwe	35.11667	-15.95	105_pdf.txt	Lilongwe
Lilongwe	35.11667	-15.95	106_pdf.txt	Lilongwe
Lilongwe	35.11667	-15.95	107_pdf.txt	Lilongwe
Lilongwe	35.11667	-15.95	108_pdf.txt	Lilongwe
Lilongwe	35.11667	-15.95	109_pdf.txt	Lilongwe
Lilongwe	35.11667	-15.95	10_pdf.txt	Lilongwe
Lilongwe	35.11667	-15.95	110_pdf.txt	Lilongwe
Lilongwe	35.11667	-15.95	111_pdf.txt	Lilongwe
Lilongwe	35.11667	-15.95	112_pdf.txt	Lilongwe
Lilongwe	35.11667	-15.95	114_pdf.txt	Lilongwe
Lilongwe	35.11667	-15.95	115_pdf.txt	Lilongwe
Lilongwe	35.11667	-15.95	116_pdf.txt	Lilongwe
Lilongwe	35.11667	-15.95	117_pdf.txt	Lilongwe
Lilongwe	35.11667	-15.95	118_pdf.txt	Lilongwe
Lilongwe	35.11667	-15.95	119_pdf.txt	Lilongwe
Lilongwe	35.11667	-15.95	11_pdf.txt	Lilongwe
Lilongwe	35.11667	-15.95	120_pdf.txt	Lilongwe
Lilongwe	35.11667	-15.95	121_pdf.txt	Lilongwe
Lilongwe	35.11667	-15.95	122_pdf.txt	Lilongwe
Lilongwe	35.11667	-15.95	123_pdf.txt	Lilongwe
Lilongwe	35.11667	-15.95	124_pdf.txt	Lilongwe
Lilongwe	35.11667	-15.95	125_pdf.txt	Lilongwe
Lilongwe	35.11667	-15.95	126_pdf.txt	Lilongwe
Lilongwe	35.11667	-15.95	128_pdf.txt	Lilongwe
Lilongwe	35.11667	-15.95	129_pdf.txt	Lilongwe
Lilongwe	35.11667	-15.95	12_pdf.txt	Lilongwe
Lilongwe	35.11667	-15.95	130_pdf.txt	Lilongwe
Lilongwe	35.11667	-15.95	131_pdf.txt	Lilongwe
Lilongwe	35.11667	-15.95	132_pdf.txt	Lilongwe
Lilongwe	35.11667	-15.95	133_pdf.txt	Lilongwe
Lilongwe	35.11667	-15.95	134_pdf.txt	Lilongwe
Lilongwe	35.11667	-15.95	135_pdf.txt	Lilongwe
Lilongwe	35.11667	-15.95	136_pdf.txt	Lilongwe
Lilongwe	35.11667	-15.95	137_pdf.txt	Lilongwe
Lilongwe	35.11667	-15.95	138_pdf.txt	Lilongwe
Lilongwe	35.11667	-15.95	139_pdf.txt	Lilongwe
Lilongwe	35.11667	-15.95	13_pdf.txt	Lilongwe
Lilongwe	35.11667	-15.95	141_pdf.txt	Lilongwe
Lilongwe	35.11667	-15.95	142_pdf.txt	Lilongwe
Lilongwe	35.11667	-15.95	143_pdf.txt	Lilongwe
Lilongwe	35.11667	-15.95	144_pdf.txt	Lilongwe
Lilongwe	35.11667	-15.95	146_pdf.txt	Lilongwe
Lilongwe	35.11667	-15.95	147_pdf.txt	Lilongwe
Lilongwe	35.11667	-15.95	148_pdf.txt	Lilongwe
Lilongwe	35.11667	-15.95	149_pdf.txt	Lilongwe
Lilongwe	35.11667	-15.95	14_pdf.txt	Lilongwe
Lilongwe	35.11667	-15.95	150_pdf.txt	Lilongwe
Lilongwe	35.11667	-15.95	151_pdf.txt	Lilongwe
Lilongwe	35.11667	-15.95	152_pdf.txt	Lilongwe
Lilongwe	35.11667	-15.95	153_pdf.txt	Lilongwe
Lilongwe	35.11667	-15.95	154_pdf.txt	Lilongwe
Lilongwe	35.11667	-15.95	155_pdf.txt	Lilongwe
Lilongwe	35.11667	-15.95	156_pdf.txt	Lilongwe
Lilongwe	35.11667	-15.95	157_pdf.txt	Lilongwe
Lilongwe	35.11667	-15.95	158_pdf.txt	Lilongwe
Lilongwe	35.11667	-15.95	159_pdf.txt	Lilongwe
Lilongwe	35.11667	-15.95	15_pdf.txt	Lilongwe
Lilongwe	35.11667	-15.95	160_pdf.txt	Lilongwe
Lilongwe	35.11667	-15.95	161_pdf.txt	Lilongwe
Lilongwe	35.11667	-15.95	162_pdf.txt	Lilongwe
Lilongwe	35.11667	-15.95	163_pdf.txt	Lilongwe
Lilongwe	35.11667	-15.95	164_pdf.txt	Lilongwe
Lilongwe	35.11667	-15.95	165_pdf.txt	Lilongwe
Lilongwe	35.11667	-15.95	166_pdf.txt	Lilongwe
Lilongwe	35.11667	-15.95	168_pdf.txt	Lilongwe
Lilongwe	35.11667	-15.95	169_pdf.txt	Lilongwe
Lilongwe	35.11667	-15.95	16_pdf.txt	Lilongwe
Lilongwe	35.11667	-15.95	170_pdf.txt	Lilongwe
Lilongwe	35.11667	-15.95	171_pdf.txt	Lilongwe
Lilongwe	35.11667	-15.95	172_pdf.txt	Lilongwe
Lilongwe	35.11667	-15.95	173_pdf.txt	Lilongwe
Lilongwe	35.11667	-15.95	174_pdf.txt	Lilongwe
Lilongwe	35.11667	-15.95	175_pdf.txt	Lilongwe
Lilongwe	35.11667	-15.95	176_pdf.txt	Lilongwe
Lilongwe	35.11667	-15.95	177_pdf.txt	Lilongwe
Lilongwe	35.11667	-15.95	178_pdf.txt	Lilongwe
Lilongwe	35.11667	-15.95	179_pdf.txt	Lilongwe
Lilongwe	35.11667	-15.95	180_pdf.txt	Lilongwe
Lilongwe	35.11667	-15.95	181_pdf.txt	Lilongwe
Lilongwe	35.11667	-15.95	183_pdf.txt	Lilongwe
Lilongwe	35.11667	-15.95	184_pdf.txt	Lilongwe
Lilongwe	35.11667	-15.95	185_pdf.txt	Lilongwe
Lilongwe	35.11667	-15.95	186_pdf.txt	Lilongwe
Lilongwe	35.11667	-15.95	187_pdf.txt	Lilongwe
Lilongwe	35.11667	-15.95	188_pdf.txt	Lilongwe
Lilongwe	35.11667	-15.95	189_pdf.txt	Lilongwe
Lilongwe	35.11667	-15.95	18_pdf.txt	Lilongwe
Lilongwe	35.11667	-15.95	191_pdf.txt	Lilongwe
Lilongwe	35.11667	-15.95	195_pdf.txt	Lilongwe
Lilongwe	35.11667	-15.95	197_pdf.txt	Lilongwe
Lilongwe	35.11667	-15.95	199_pdf.txt	Lilongwe
Lilongwe	35.11667	-15.95	1_jpg.txt	Lilongwe
Lilongwe	35.11667	-15.95	201_pdf.txt	Lilongwe
Lilongwe	35.11667	-15.95	203_pdf.txt	Lilongwe
Lilongwe	35.11667	-15.95	204_pdf.txt	Lilongwe
Lilongwe	35.11667	-15.95	205_pdf.txt	Lilongwe
Lilongwe	35.11667	-15.95	206_pdf.txt	Lilongwe
Lilongwe	35.11667	-15.95	207_pdf.txt	Lilongwe
Lilongwe	35.11667	-15.95	208_pdf.txt	Lilongwe
Lilongwe	35.11667	-15.95	209_pdf.txt	Lilongwe
Lilongwe	35.11667	-15.95	20_pdf.txt	Lilongwe
Lilongwe	35.11667	-15.95	210_pdf.txt	Lilongwe
Lilongwe	35.11667	-15.95	211_pdf.txt	Lilongwe
Lilongwe	35.11667	-15.95	212_pdf.txt	Lilongwe
Lilongwe	35.11667	-15.95	214_pdf.txt	Lilongwe
Lilongwe	35.11667	-15.95	215_pdf.txt	Lilongwe
Lilongwe	35.11667	-15.95	216_pdf.txt	Lilongwe
Lilongwe	35.11667	-15.95	217_pdf.txt	Lilongwe
Lilongwe	35.11667	-15.95	219_pdf.txt	Lilongwe
Lilongwe	35.11667	-15.95	220_pdf.txt	Lilongwe
Lilongwe	35.11667	-15.95	221_pdf.txt	Lilongwe
Lilongwe	35.11667	-15.95	222_pdf.txt	Lilongwe
Lilongwe	35.11667	-15.95	223_pdf.txt	Lilongwe
Lilongwe	35.11667	-15.95	224_pdf.txt	Lilongwe
Lilongwe	35.11667	-15.95	226_pdf.txt	Lilongwe
Lilongwe	35.11667	-15.95	227_pdf.txt	Lilongwe
Lilongwe	35.11667	-15.95	22_pdf.txt	Lilongwe
Lilongwe	35.11667	-15.95	230_pdf.txt	Lilongwe
Lilongwe	35.11667	-15.95	232_pdf.txt	Lilongwe
Lilongwe	35.11667	-15.95	233_pdf.txt	Lilongwe
Lilongwe	35.11667	-15.95	235_pdf.txt	Lilongwe
Lilongwe	35.11667	-15.95	236_pdf.txt	Lilongwe
Lilongwe	35.11667	-15.95	237_pdf.txt	Lilongwe
Lilongwe	35.11667	-15.95	238_pdf.txt	Lilongwe
Lilongwe	35.11667	-15.95	239_pdf.txt	Lilongwe
Lilongwe	35.11667	-15.95	240_pdf.txt	Lilongwe
Lilongwe	35.11667	-15.95	241_pdf.txt	Lilongwe
Lilongwe	35.11667	-15.95	242_pdf.txt	Lilongwe
Lilongwe	35.11667	-15.95	244_pdf.txt	Lilongwe
Lilongwe	35.11667	-15.95	245_pdf.txt	Lilongwe
Lilongwe	35.11667	-15.95	246_pdf.txt	Lilongwe
Lilongwe	35.11667	-15.95	247_pdf.txt	Lilongwe
Lilongwe	35.11667	-15.95	248_pdf.txt	Lilongwe
Lilongwe	35.11667	-15.95	24_pdf.txt	Lilongwe
Lilongwe	35.11667	-15.95	252_pdf.txt	Lilongwe
Lilongwe	35.11667	-15.95	253_pdf.txt	Lilongwe
Lilongwe	35.11667	-15.95	254_pdf.txt	Lilongwe
Lilongwe	35.11667	-15.95	255_pdf.txt	Lilongwe
Lilongwe	35.11667	-15.95	256_pdf.txt	Lilongwe
Lilongwe	35.11667	-15.95	257_pdf.txt	Lilongwe
Lilongwe	35.11667	-15.95	258_pdf.txt	Lilongwe
Lilongwe	35.11667	-15.95	25_pdf.txt	Lilongwe
Lilongwe	35.11667	-15.95	26_pdf.txt	Lilongwe
Lilongwe	35.11667	-15.95	27_pdf.txt	Lilongwe
Lilongwe	35.11667	-15.95	28_pdf.txt	Lilongwe
Lilongwe	35.11667	-15.95	29_pdf.txt	Lilongwe
Lilongwe	35.11667	-15.95	2_pdf.txt	Lilongwe
Lilongwe	35.11667	-15.95	30_pdf.txt	Lilongwe
Lilongwe	35.11667	-15.95	32_pdf.txt	Lilongwe
Lilongwe	35.11667	-15.95	34_pdf.txt	Lilongwe
Lilongwe	35.11667	-15.95	35_pdf.txt	Lilongwe
Lilongwe	35.11667	-15.95	36_pdf.txt	Lilongwe
Lilongwe	35.11667	-15.95	37_pdf.txt	Lilongwe
Lilongwe	35.11667	-15.95	38_pdf.txt	Lilongwe
Lilongwe	35.11667	-15.95	39_pdf.txt	Lilongwe
Lilongwe	35.11667	-15.95	3_pdf.txt	Lilongwe
Lilongwe	35.11667	-15.95	40_pdf.txt	Lilongwe
Lilongwe	35.11667	-15.95	41_pdf.txt	Lilongwe
Lilongwe	35.11667	-15.95	42_jpg.txt	Lilongwe
Lilongwe	35.11667	-15.95	42_pdf.txt	Lilongwe
Lilongwe	35.11667	-15.95	43_pdf.txt	Lilongwe
Lilongwe	35.11667	-15.95	45_pdf.txt	Lilongwe
Lilongwe	35.11667	-15.95	46_pdf.txt	Lilongwe
Lilongwe	35.11667	-15.95	47_jpg.txt	Lilongwe
Lilongwe	35.11667	-15.95	48_pdf.txt	Lilongwe
Lilongwe	35.11667	-15.95	49_pdf.txt	Lilongwe
Lilongwe	35.11667	-15.95	52_pdf.txt	Lilongwe
Lilongwe	35.11667	-15.95	53_pdf.txt	Lilongwe
Lilongwe	35.11667	-15.95	54_pdf.txt	Lilongwe
Lilongwe	35.11667	-15.95	55_pdf.txt	Lilongwe
Lilongwe	35.11667	-15.95	57_pdf.txt	Lilongwe
Lilongwe	35.11667	-15.95	58_pdf.txt	Lilongwe
Lilongwe	35.11667	-15.95	59_pdf.txt	Lilongwe
Lilongwe	35.11667	-15.95	5_jpg.txt	Lilongwe
Lilongwe	35.11667	-15.95	5_pdf.txt	Lilongwe
Lilongwe	35.11667	-15.95	60_pdf.txt	Lilongwe
Lilongwe	35.11667	-15.95	61_pdf.txt	Lilongwe
Lilongwe	35.11667	-15.95	63_pdf.txt	Lilongwe
Lilongwe	35.11667	-15.95	64_pdf.txt	Lilongwe
Lilongwe	35.11667	-15.95	65_pdf.txt	Lilongwe
Lilongwe	35.11667	-15.95	67_pdf.txt	Lilongwe
Lilongwe	35.11667	-15.95	68_pdf.txt	Lilongwe
Lilongwe	35.11667	-15.95	69_pdf.txt	Lilongwe
Lilongwe	35.11667	-15.95	6_pdf.txt	Lilongwe
Lilongwe	35.11667	-15.95	71_pdf.txt	Lilongwe
Lilongwe	35.11667	-15.95	72_pdf.txt	Lilongwe
Lilongwe	35.11667	-15.95	74_pdf.txt	Lilongwe
Lilongwe	35.11667	-15.95	75_pdf.txt	Lilongwe
Lilongwe	35.11667	-15.95	76_pdf.txt	Lilongwe
Lilongwe	35.11667	-15.95	77_pdf.txt	Lilongwe
Lilongwe	35.11667	-15.95	78_pdf.txt	Lilongwe
Lilongwe	35.11667	-15.95	7_pdf.txt	Lilongwe
Lilongwe	35.11667	-15.95	80_pdf.txt	Lilongwe
Lilongwe	35.11667	-15.95	81_pdf.txt	Lilongwe
Lilongwe	35.11667	-15.95	82_pdf.txt	Lilongwe
Lilongwe	35.11667	-15.95	84_pdf.txt	Lilongwe
Lilongwe	35.11667	-15.95	85_pdf.txt	Lilongwe
Lilongwe	35.11667	-15.95	86_jpg.txt	Lilongwe
Lilongwe	35.11667	-15.95	86_pdf.txt	Lilongwe
Lilongwe	35.11667	-15.95	87_pdf.txt	Lilongwe
Lilongwe	35.11667	-15.95	88_pdf.txt	Lilongwe
Lilongwe	35.11667	-15.95	89_pdf.txt	Lilongwe
Lilongwe	35.11667	-15.95	8_pdf.txt	Lilongwe
Lilongwe	35.11667	-15.95	90_pdf.txt	Lilongwe
Lilongwe	35.11667	-15.95	91_jpg.txt	Lilongwe
Lilongwe	35.11667	-15.95	91_pdf.txt	Lilongwe
Lilongwe	35.11667	-15.95	92_pdf.txt	Lilongwe
Lilongwe	35.11667	-15.95	93_pdf.txt	Lilongwe
Lilongwe	35.11667	-15.95	94_pdf.txt	Lilongwe
Lilongwe	35.11667	-15.95	95_pdf.txt	Lilongwe
Lilongwe	35.11667	-15.95	96_pdf.txt	Lilongwe
Lilongwe	35.11667	-15.95	98_pdf.txt	Lilongwe
Lilongwe	35.11667	-15.95	99_pdf.txt	Lilongwe
Lilongwe	35.11667	-15.95	9_pdf.txt	Lilongwe
Lilongwe	35.11667	-15.95	Food_Security_and_Agriculture_Project_List_from_MoAFS_March_2011.csv	Lilongwe
Limbe	35.06018	-15.80901	208_pdf.txt	Limbe
Limbe	35.06018	-15.80901	211_pdf.txt	Limbe
Limbe	35.06018	-15.80901	36_pdf.txt	Limbe
Limbe	35.06018	-15.80901	55_pdf.txt	Limbe
Limbe	35.06018	-15.80901	59_pdf.txt	Limbe
Limbe	35.06018	-15.80901	Food_Security_and_Agriculture_Project_List_from_MoAFS_March_2011.csv	Limbe
Linjizi	34.9892	-15.35843	IGPWP_Roads_project_sites0.csv	Linjizi
Linjizi	34.9892	-15.35843	IGPWP_Roads_project_sites1.csv	Linjizi
Linjizi	34.9892	-15.35843	IGPWP_Roads_project_sites.csv	Linjizi
Linthipe	34.57173	-13.91684	215_pdf.txt	Linthipe
Linthipe	34.57173	-13.91684	52_pdf.txt	Linthipe
Lisasadzi	33.58362	-13.24207	207_pdf.txt	Lisasadzi
Lisasadzi	33.58362	-13.24207	239_pdf.txt	Lisasadzi
Lisasadzi	33.58362	-13.24207	241_pdf.txt	Lisasadzi
Lisasadzi	33.58362	-13.24207	249_pdf.txt	Lisasadzi
Lisasadzi	33.58362	-13.24207	54_pdf.txt	Lisasadzi
Livingstonia	34.10628	-10.60602	139_pdf.txt	Livingstonia
Livingstonia	34.10628	-10.60602	215_pdf.txt	Livingstonia
Livingstonia	34.10628	-10.60602	242_pdf.txt	Livingstonia
Livingstonia	34.10628	-10.60602	244_pdf.txt	Livingstonia
Livingstonia	34.10628	-10.60602	52_pdf.txt	Livingstonia
Livingstonia	34.10628	-10.60602	89_pdf.txt	Livingstonia
Liwaladzi	34.16634	-12.62101	207_pdf.txt	Liwaladzi
Liwaladzi	34.16634	-12.62101	239_pdf.txt	Liwaladzi
Liwaladzi	34.16634	-12.62101	241_pdf.txt	Liwaladzi
Liwaladzi	34.16634	-12.62101	54_pdf.txt	Liwaladzi
Liwaladzi	34.16634	-12.62101	Food_Security_and_Agriculture_Project_List_from_MoAFS_March_2011.csv	Liwaladzi
Liwewe	34.26733	-12.95742	30_pdf.txt	Liwewe
Liwewe	34.26733	-12.95742	37_pdf.txt	Liwewe
Liwonde	35.22543	-15.06665	206_pdf.txt	Liwonde
Liwonde	35.22543	-15.06665	242_pdf.txt	Liwonde
Liwonde	35.22543	-15.06665	244_pdf.txt	Liwonde
Liwonde	35.22543	-15.06665	28_pdf.txt	Liwonde
Liwonde	35.22543	-15.06665	30_pdf.txt	Liwonde
Liwonde	35.22543	-15.06665	32_pdf.txt	Liwonde
Liwonde	35.22543	-15.06665	42_jpg.txt	Liwonde
Liwonde	35.22543	-15.06665	42_pdf.txt	Liwonde
Liwonde	35.22543	-15.06665	53_pdf.txt	Liwonde
Liwonde	35.22543	-15.06665	86_jpg.txt	Liwonde
Lobi	34.07428	-14.38924	215_pdf.txt	Lobi
Lobi	34.07428	-14.38924	52_pdf.txt	Lobi
Longwe	35.76906	-15.74056	211_pdf.txt	Longwe
Longwe	35.76906	-15.74056	59_pdf.txt	Longwe
Luchenza	35.30947	-16.00693	18_pdf.txt	Luchenza
Luchenza	35.30947	-16.00693	247_pdf.txt	Luchenza
Luchenza	35.30947	-16.00693	37_pdf.txt	Luchenza
Luchenza	35.30947	-16.00693	IGPWP_Roads_project_sites0.csv	Luchenza
Luchenza	35.30947	-16.00693	IGPWP_Roads_project_sites1.csv	Luchenza
Luchenza	35.30947	-16.00693	IGPWP_Roads_project_sites.csv	Luchenza
Lufilya	33.90676	-9.80496	238_pdf.txt	Lufilya
Lufilya	33.90676	-9.80496	245_pdf.txt	Lufilya
Lujeri	35.65	-16	IGPWP_Roads_project_sites0.csv	Lujeri
Lujeri	35.65	-16	IGPWP_Roads_project_sites1.csv	Lujeri
Lujeri	35.65	-16	IGPWP_Roads_project_sites.csv	Lujeri
Lukwa	35.23333	-16.75	36_pdf.txt	Lukwa
Lundu	35.35	-15.61667	149_pdf.txt	Lundu
Lundu	35.35	-15.61667	93_pdf.txt	Lundu
Lundu	35.35	-15.61667	IGPWP_Roads_project_sites0.csv	Lundu
Lundu	35.35	-15.61667	IGPWP_Roads_project_sites1.csv	Lundu
Lundu	35.35	-15.61667	IGPWP_Roads_project_sites.csv	Lundu
Lungwena	35.24659	-14.26843	29_pdf.txt	Lungwena
Lungwena	35.24659	-14.26843	33_pdf.txt	Lungwena
Lunzu	35.03333	-15.68333	IGPWP_Roads_project_sites0.csv	Lunzu
Lunzu	35.03333	-15.68333	IGPWP_Roads_project_sites1.csv	Lunzu
Lunzu	35.03333	-15.68333	IGPWP_Roads_project_sites.csv	Lunzu
Lura	34.0486	-10.7496	215_pdf.txt	Lura
Lura	34.0486	-10.7496	52_pdf.txt	Lura
Lwazi	34.18333	-11.51667	215_pdf.txt	Lwazi
Lwazi	34.18333	-11.51667	52_pdf.txt	Lwazi
Machina	35.73333	-14.76667	215_pdf.txt	Machina
Machina	35.73333	-14.76667	52_pdf.txt	Machina
Machinga	35.30002	-15.16849	109_pdf.txt	Machinga
Machinga	35.30002	-15.16849	139_pdf.txt	Machinga
Machinga	35.30002	-15.16849	147_pdf.txt	Machinga
Machinga	35.30002	-15.16849	189_pdf.txt	Machinga
Machinga	35.30002	-15.16849	200_pdf.txt	Machinga
Machinga	35.30002	-15.16849	202_pdf.txt	Machinga
Machinga	35.30002	-15.16849	203_pdf.txt	Machinga
Machinga	35.30002	-15.16849	204_pdf.txt	Machinga
Machinga	35.30002	-15.16849	205_pdf.txt	Machinga
Machinga	35.30002	-15.16849	206_pdf.txt	Machinga
Machinga	35.30002	-15.16849	215_pdf.txt	Machinga
Machinga	35.30002	-15.16849	235_pdf.txt	Machinga
Machinga	35.30002	-15.16849	236_pdf.txt	Machinga
Machinga	35.30002	-15.16849	237_pdf.txt	Machinga
Machinga	35.30002	-15.16849	240_pdf.txt	Machinga
Machinga	35.30002	-15.16849	246_pdf.txt	Machinga
Machinga	35.30002	-15.16849	247_pdf.txt	Machinga
Machinga	35.30002	-15.16849	253_pdf.txt	Machinga
Machinga	35.30002	-15.16849	28_pdf.txt	Machinga
Machinga	35.30002	-15.16849	3_pdf.txt	Machinga
Machinga	35.30002	-15.16849	42_jpg.txt	Machinga
Machinga	35.30002	-15.16849	42_pdf.txt	Machinga
Machinga	35.30002	-15.16849	52_pdf.txt	Machinga
Machinga	35.30002	-15.16849	53_pdf.txt	Machinga
Machinga	35.30002	-15.16849	86_jpg.txt	Machinga
Machinga	35.30002	-15.16849	89_pdf.txt	Machinga
Machinga	35.30002	-15.16849	90_pdf.txt	Machinga
Machinga	35.30002	-15.16849	FAO_mapping.csv	Machinga
Machinga	35.30002	-15.16849	Food_Security_and_Agriculture_Project_List_from_MoAFS_March_2011.csv	Machinga
Madisi	33.60665	-13.4176	215_pdf.txt	Madisi
Madisi	33.60665	-13.4176	52_pdf.txt	Madisi
Madziada	33.68333	-13.35	IGPWP_Forestry_Project_sites0.csv	Madziada
Madziada	33.68333	-13.35	IGPWP_Forestry_Project_sites1.csv	Madziada
Madziada	33.68333	-13.35	IGPWP_Forestry_Project_sites.csv	Madziada
Madzonga	33.41667	-13.75	30_pdf.txt	Madzonga
Madzonga	33.41667	-13.75	32_pdf.txt	Madzonga
Maganga	34.75608	-15.91626	215_pdf.txt	Maganga
Maganga	34.75608	-15.91626	52_pdf.txt	Maganga
Majiga	33.37396	-13.85946	215_pdf.txt	Majiga
Majiga	33.37396	-13.85946	52_pdf.txt	Majiga
Makande	35.26667	-15.96667	IGPWP_Roads_project_sites0.csv	Makande
Makande	35.26667	-15.96667	IGPWP_Roads_project_sites1.csv	Makande
Makande	35.26667	-15.96667	IGPWP_Roads_project_sites.csv	Makande
Makanjira	35.31667	-15.45	IGPWP_Roads_project_sites0.csv	Makanjira
Makanjira	35.31667	-15.45	IGPWP_Roads_project_sites1.csv	Makanjira
Makanjira	35.31667	-15.45	IGPWP_Roads_project_sites.csv	Makanjira
Makata	35.55	-14.73333	208_pdf.txt	Makata
Makata	35.55	-14.73333	242_pdf.txt	Makata
Makata	35.55	-14.73333	244_pdf.txt	Makata
Makata	35.55	-14.73333	55_pdf.txt	Makata
Makata	35.55	-14.73333	IGPWP_Roads_project_sites0.csv	Makata
Makata	35.55	-14.73333	IGPWP_Roads_project_sites1.csv	Makata
Makata	35.55	-14.73333	IGPWP_Roads_project_sites.csv	Makata
Makoka	35.6	-14.7	Food_Security_and_Agriculture_Project_List_from_MoAFS_March_2011.csv	Makoka
Makoko	35.22716	-15.56349	192_pdf.txt	Makoko
Makoko	35.22716	-15.56349	193_pdf.txt	Makoko
Makwangwala	34.76667	-14.8	144_pdf.txt	Makwangwala
Makwangwala	34.76667	-14.8	88_pdf.txt	Makwangwala
Makwasa	35.1	-16.16667	18_pdf.txt	Makwasa
Malembo	33.42513	-13.61488	Food_Security_and_Agriculture_Project_List_from_MoAFS_March_2011.csv	Malembo
Malenga	34.97072	-14.64855	206_pdf.txt	Malenga
Malenga	34.97072	-14.64855	53_pdf.txt	Malenga
Malenga	34.97072	-14.64855	IGPWP_Forestry_Project_sites0.csv	Malenga
Malenga	34.97072	-14.64855	IGPWP_Forestry_Project_sites1.csv	Malenga
Malenga	34.97072	-14.64855	IGPWP_Forestry_Project_sites.csv	Malenga
Malikopo	34.88333	-16.4	IGPWP_Roads_project_sites0.csv	Malikopo
Malikopo	34.88333	-16.4	IGPWP_Roads_project_sites1.csv	Malikopo
Malikopo	34.88333	-16.4	IGPWP_Roads_project_sites.csv	Malikopo
Malomo	33.81446	-13.15789	243_pdf.txt	Malomo
Malosa	35.3	-15.25	203_pdf.txt	Malosa
Malosa	35.3	-15.25	204_pdf.txt	Malosa
Malosa	35.3	-15.25	205_pdf.txt	Malosa
Malosa	35.3	-15.25	42_jpg.txt	Malosa
Malosa	35.3	-15.25	86_jpg.txt	Malosa
Maluwa	33.3	-12.66667	IGPWP_Forestry_Project_sites0.csv	Maluwa
Maluwa	33.3	-12.66667	IGPWP_Forestry_Project_sites1.csv	Maluwa
Maluwa	33.3	-12.66667	IGPWP_Forestry_Project_sites.csv	Maluwa
Mangamba	35.42463	-14.78533	42_pdf.txt	Mangamba
Mangochi	35.26448	-14.47815	109_pdf.txt	Mangochi
Mangochi	35.26448	-14.47815	10_pdf.txt	Mangochi
Mangochi	35.26448	-14.47815	139_pdf.txt	Mangochi
Mangochi	35.26448	-14.47815	143_pdf.txt	Mangochi
Mangochi	35.26448	-14.47815	14_pdf.txt	Mangochi
Mangochi	35.26448	-14.47815	15_pdf.txt	Mangochi
Mangochi	35.26448	-14.47815	16_pdf.txt	Mangochi
Mangochi	35.26448	-14.47815	189_pdf.txt	Mangochi
Mangochi	35.26448	-14.47815	207_pdf.txt	Mangochi
Mangochi	35.26448	-14.47815	208_pdf.txt	Mangochi
Mangochi	35.26448	-14.47815	211_pdf.txt	Mangochi
Mangochi	35.26448	-14.47815	215_pdf.txt	Mangochi
Mangochi	35.26448	-14.47815	222_pdf.txt	Mangochi
Mangochi	35.26448	-14.47815	232_pdf.txt	Mangochi
Mangochi	35.26448	-14.47815	235_pdf.txt	Mangochi
Mangochi	35.26448	-14.47815	236_pdf.txt	Mangochi
Mangochi	35.26448	-14.47815	237_pdf.txt	Mangochi
Mangochi	35.26448	-14.47815	240_pdf.txt	Mangochi
Mangochi	35.26448	-14.47815	243_pdf.txt	Mangochi
Mangochi	35.26448	-14.47815	246_pdf.txt	Mangochi
Mangochi	35.26448	-14.47815	247_pdf.txt	Mangochi
Mangochi	35.26448	-14.47815	253_pdf.txt	Mangochi
Mangochi	35.26448	-14.47815	28_pdf.txt	Mangochi
Mangochi	35.26448	-14.47815	29_pdf.txt	Mangochi
Mangochi	35.26448	-14.47815	32_pdf.txt	Mangochi
Mangochi	35.26448	-14.47815	36_pdf.txt	Mangochi
Mangochi	35.26448	-14.47815	42_pdf.txt	Mangochi
Mangochi	35.26448	-14.47815	52_pdf.txt	Mangochi
Mangochi	35.26448	-14.47815	54_pdf.txt	Mangochi
Mangochi	35.26448	-14.47815	55_pdf.txt	Mangochi
Mangochi	35.26448	-14.47815	59_pdf.txt	Mangochi
Mangochi	35.26448	-14.47815	67_pdf.txt	Mangochi
Mangochi	35.26448	-14.47815	76_pdf.txt	Mangochi
Mangochi	35.26448	-14.47815	86_pdf.txt	Mangochi
Mangochi	35.26448	-14.47815	89_pdf.txt	Mangochi
Mangochi	35.26448	-14.47815	FAO_mapping.csv	Mangochi
Mangochi	35.26448	-14.47815	Food_Security_and_Agriculture_Project_List_from_MoAFS_March_2011.csv	Mangochi
Mangombo	34.81433	-14.16212	30_pdf.txt	Mangombo
Masache	34.95	-16.56667	149_pdf.txt	Masache
Masache	34.95	-16.56667	93_pdf.txt	Masache
Masache	34.95	-16.56667	IGPWP_Roads_project_sites0.csv	Masache
Masache	34.95	-16.56667	IGPWP_Roads_project_sites1.csv	Masache
Masache	34.95	-16.56667	IGPWP_Roads_project_sites.csv	Masache
Masasa	34.51667	-14.38333	Food_Security_and_Agriculture_Project_List_from_MoAFS_March_2011.csv	Masasa
Masenjere	35.08643	-16.33155	42_jpg.txt	Masenjere
Masenjere	35.08643	-16.33155	86_jpg.txt	Masenjere
Mataya	33.34199	-12.8372	100_pdf.txt	Mataya
Mataya	33.34199	-12.8372	101_pdf.txt	Mataya
Mataya	33.34199	-12.8372	102_pdf.txt	Mataya
Mataya	33.34199	-12.8372	103_pdf.txt	Mataya
Mataya	33.34199	-12.8372	107_pdf.txt	Mataya
Mataya	33.34199	-12.8372	115_pdf.txt	Mataya
Mataya	33.34199	-12.8372	121_pdf.txt	Mataya
Mataya	33.34199	-12.8372	123_pdf.txt	Mataya
Mataya	33.34199	-12.8372	131_pdf.txt	Mataya
Mataya	33.34199	-12.8372	132_pdf.txt	Mataya
Mataya	33.34199	-12.8372	135_pdf.txt	Mataya
Mataya	33.34199	-12.8372	142_pdf.txt	Mataya
Mataya	33.34199	-12.8372	153_pdf.txt	Mataya
Mataya	33.34199	-12.8372	155_pdf.txt	Mataya
Mataya	33.34199	-12.8372	158_pdf.txt	Mataya
Mataya	33.34199	-12.8372	160_pdf.txt	Mataya
Mataya	33.34199	-12.8372	161_pdf.txt	Mataya
Mataya	33.34199	-12.8372	164_pdf.txt	Mataya
Mataya	33.34199	-12.8372	165_pdf.txt	Mataya
Mataya	33.34199	-12.8372	171_pdf.txt	Mataya
Mataya	33.34199	-12.8372	172_pdf.txt	Mataya
Mataya	33.34199	-12.8372	177_pdf.txt	Mataya
Mataya	33.34199	-12.8372	184_pdf.txt	Mataya
Mataya	33.34199	-12.8372	187_pdf.txt	Mataya
Mataya	33.34199	-12.8372	218_pdf.txt	Mataya
Mataya	33.34199	-12.8372	43_jpg.txt	Mataya
Mataya	33.34199	-12.8372	51_pdf.txt	Mataya
Mataya	33.34199	-12.8372	85_pdf.txt	Mataya
Mataya	33.34199	-12.8372	87_jpg.txt	Mataya
Mataya	33.34199	-12.8372	87_pdf.txt	Mataya
Mataya	33.34199	-12.8372	95_pdf.txt	Mataya
Mataya	33.34199	-12.8372	99_pdf.txt	Mataya
Matenje	34.08333	-13.43333	242_pdf.txt	Matenje
Matenje	34.08333	-13.43333	244_pdf.txt	Matenje
Mathanta	33.59001	-11.54394	215_pdf.txt	Mathanta
Mathanta	33.59001	-11.54394	52_pdf.txt	Mathanta
Matiya	35.37657	-15.59962	IGPWP_Roads_project_sites0.csv	Matiya
Matiya	35.37657	-15.59962	IGPWP_Roads_project_sites1.csv	Matiya
Matiya	35.37657	-15.59962	IGPWP_Roads_project_sites.csv	Matiya
Matope	34.74972	-15.89899	215_pdf.txt	Matope
Matope	34.74972	-15.89899	2_pdf.txt	Matope
Matope	34.74972	-15.89899	41_pdf.txt	Matope
Matope	34.74972	-15.89899	52_pdf.txt	Matope
Matope	34.74972	-15.89899	Food_Security_and_Agriculture_Project_List_from_MoAFS_March_2011.csv	Matope
Maunda	35.76667	-14.95	IGPWP_Forestry_Project_sites0.csv	Maunda
Maunda	35.76667	-14.95	IGPWP_Forestry_Project_sites1.csv	Maunda
Maunda	35.76667	-14.95	IGPWP_Forestry_Project_sites.csv	Maunda
Mazamba	33.90683	-11.6743	215_pdf.txt	Mazamba
Mazamba	33.90683	-11.6743	52_pdf.txt	Mazamba
Mbabzi	33.5362	-13.98007	25_pdf.txt	Mbabzi
Mbabzi	33.5362	-13.98007	35_pdf.txt	Mbabzi
Mbalame	35.53333	-15.15	IGPWP_Forestry_Project_sites0.csv	Mbalame
Mbalame	35.53333	-15.15	IGPWP_Forestry_Project_sites1.csv	Mbalame
Mbalame	35.53333	-15.15	IGPWP_Forestry_Project_sites.csv	Mbalame
Mbawa	33.4	-12.1	215_pdf.txt	Mbawa
Mbawa	33.4	-12.1	249_pdf.txt	Mbawa
Mbawa	33.4	-12.1	52_pdf.txt	Mbawa
Mbawa	33.4	-12.1	Food_Security_and_Agriculture_Project_List_from_MoAFS_March_2011.csv	Mbawa
Mbela	35.0541	-14.91333	215_pdf.txt	Mbela
Mbela	35.0541	-14.91333	52_pdf.txt	Mbela
Mbemba	33.60104	-12.74038	30_pdf.txt	Mbemba
Mbewa	33.31667	-13.68333	30_pdf.txt	Mbewa
Mbewa	33.31667	-13.68333	IGPWP_Forestry_Project_sites0.csv	Mbewa
Mbewa	33.31667	-13.68333	IGPWP_Forestry_Project_sites1.csv	Mbewa
Mbewa	33.31667	-13.68333	IGPWP_Forestry_Project_sites.csv	Mbewa
Mbewe	34.89815	-16.168	10_pdf.txt	Mbewe
Mbewe	34.89815	-16.168	149_pdf.txt	Mbewe
Mbewe	34.89815	-16.168	93_pdf.txt	Mbewe
Mbingwa	33.75	-14.06667	IGPWP_Forestry_Project_sites0.csv	Mbingwa
Mbingwa	33.75	-14.06667	IGPWP_Forestry_Project_sites1.csv	Mbingwa
Mbingwa	33.75	-14.06667	IGPWP_Forestry_Project_sites.csv	Mbingwa
Mbonekela	34.13728	-13.04497	215_pdf.txt	Mbonekela
Mbonekela	34.13728	-13.04497	52_pdf.txt	Mbonekela
Mbwana	35.28333	-15.45	10_pdf.txt	Mbwana
Mchacha	35.17173	-17.1097	IGPWP_Roads_project_sites0.csv	Mchacha
Mchacha	35.17173	-17.1097	IGPWP_Roads_project_sites1.csv	Mchacha
Mchacha	35.17173	-17.1097	IGPWP_Roads_project_sites.csv	Mchacha
Mchenga	35.58041	-15.36722	215_pdf.txt	Mchenga
Mchenga	35.58041	-15.36722	52_pdf.txt	Mchenga
Mchere	33.96667	-13.36667	Food_Security_and_Agriculture_Project_List_from_MoAFS_March_2011.csv	Mchere
Mchere	33.96667	-13.36667	IGPWP_Roads_project_sites0.csv	Mchere
Mchere	33.96667	-13.36667	IGPWP_Roads_project_sites1.csv	Mchere
Mchere	33.96667	-13.36667	IGPWP_Roads_project_sites.csv	Mchere
Mchinji	32.8856	-13.74209	109_pdf.txt	Mchinji
Mchinji	32.8856	-13.74209	139_pdf.txt	Mchinji
Mchinji	32.8856	-13.74209	14_pdf.txt	Mchinji
Mchinji	32.8856	-13.74209	15_pdf.txt	Mchinji
Mchinji	32.8856	-13.74209	186_pdf.txt	Mchinji
Mchinji	32.8856	-13.74209	189_pdf.txt	Mchinji
Mchinji	32.8856	-13.74209	215_pdf.txt	Mchinji
Mchinji	32.8856	-13.74209	235_pdf.txt	Mchinji
Mchinji	32.8856	-13.74209	238_pdf.txt	Mchinji
Mchinji	32.8856	-13.74209	242_pdf.txt	Mchinji
Mchinji	32.8856	-13.74209	244_pdf.txt	Mchinji
Mchinji	32.8856	-13.74209	245_pdf.txt	Mchinji
Mchinji	32.8856	-13.74209	247_pdf.txt	Mchinji
Mchinji	32.8856	-13.74209	36_pdf.txt	Mchinji
Mchinji	32.8856	-13.74209	39_pdf.txt	Mchinji
Mchinji	32.8856	-13.74209	42_pdf.txt	Mchinji
Mchinji	32.8856	-13.74209	52_pdf.txt	Mchinji
Mchinji	32.8856	-13.74209	89_pdf.txt	Mchinji
Mchinji	32.8856	-13.74209	96_pdf.txt	Mchinji
Mchinji	32.8856	-13.74209	Food_Security_and_Agriculture_Project_List_from_MoAFS_March_2011.csv	Mchinji
Mdima	33.61667	-14.2	IGPWP_Forestry_Project_sites0.csv	Mdima
Mdima	33.61667	-14.2	IGPWP_Forestry_Project_sites1.csv	Mdima
Mdima	33.61667	-14.2	IGPWP_Forestry_Project_sites.csv	Mdima
Mdunga	33.83323	-12.98633	Food_Security_and_Agriculture_Project_List_from_MoAFS_March_2011.csv	Mdunga
Mduwa	33.08535	-13.7211	IGPWP_Forestry_Project_sites0.csv	Mduwa
Mduwa	33.08535	-13.7211	IGPWP_Forestry_Project_sites1.csv	Mduwa
Mduwa	33.08535	-13.7211	IGPWP_Forestry_Project_sites.csv	Mduwa
Mgabi	32.80381	-13.73657	IGPWP_Forestry_Project_sites0.csv	Mgabi
Mgabi	32.80381	-13.73657	IGPWP_Forestry_Project_sites1.csv	Mgabi
Mgabi	32.80381	-13.73657	IGPWP_Forestry_Project_sites.csv	Mgabi
Mganja	34.51888	-14.41917	215_pdf.txt	Mganja
Mganja	34.51888	-14.41917	52_pdf.txt	Mganja
Mikolongwe	35.18333	-15.9	215_pdf.txt	Mikolongwe
Mikolongwe	35.18333	-15.9	247_pdf.txt	Mikolongwe
Mikolongwe	35.18333	-15.9	250_pdf.txt	Mikolongwe
Mikolongwe	35.18333	-15.9	52_pdf.txt	Mikolongwe
Mikolongwe	35.18333	-15.9	Food_Security_and_Agriculture_Project_List_from_MoAFS_March_2011.csv	Mikolongwe
Mikundi	35.26667	-16.28333	238_pdf.txt	Mikundi
Mikundi	35.26667	-16.28333	245_pdf.txt	Mikundi
Mikute	34.58708	-13.75277	215_pdf.txt	Mikute
Mikute	34.58708	-13.75277	52_pdf.txt	Mikute
Milole	35.13333	-16.31667	215_pdf.txt	Milole
Milole	35.13333	-16.31667	52_pdf.txt	Milole
Mimba	33.91667	-13.46667	36_pdf.txt	Mimba
Misuku	33.45797	-9.68394	105_pdf.txt	Misuku
Misuku	33.45797	-9.68394	162_pdf.txt	Misuku
Misuku	33.45797	-9.68394	215_pdf.txt	Misuku
Misuku	33.45797	-9.68394	251_pdf.txt	Misuku
Misuku	33.45797	-9.68394	52_pdf.txt	Misuku
Mitundu	33.77885	-14.24695	36_pdf.txt	Mitundu
Mkanda	35.3	-15.41667	215_pdf.txt	Mkanda
Mkanda	35.3	-15.41667	52_pdf.txt	Mkanda
Mkanda	35.3	-15.41667	IGPWP_Forestry_Project_sites0.csv	Mkanda
Mkanda	35.3	-15.41667	IGPWP_Forestry_Project_sites1.csv	Mkanda
Mkanda	35.3	-15.41667	IGPWP_Forestry_Project_sites.csv	Mkanda
Mkandawire	33.51667	-12.68333	149_pdf.txt	Mkandawire
Mkandawire	33.51667	-12.68333	192_pdf.txt	Mkandawire
Mkandawire	33.51667	-12.68333	193_pdf.txt	Mkandawire
Mkandawire	33.51667	-12.68333	93_pdf.txt	Mkandawire
Mkulumimba	33.56452	-13.62121	IGPWP_Forestry_Project_sites0.csv	Mkulumimba
Mkulumimba	33.56452	-13.62121	IGPWP_Forestry_Project_sites1.csv	Mkulumimba
Mkulumimba	33.56452	-13.62121	IGPWP_Forestry_Project_sites.csv	Mkulumimba
Mkutumula	34.89274	-14.84598	215_pdf.txt	Mkutumula
Mkutumula	34.89274	-14.84598	52_pdf.txt	Mkutumula
Mkwinda	33.74886	-14.1782	IGPWP_Forestry_Project_sites0.csv	Mkwinda
Mkwinda	33.74886	-14.1782	IGPWP_Forestry_Project_sites1.csv	Mkwinda
Mkwinda	33.74886	-14.1782	IGPWP_Forestry_Project_sites.csv	Mkwinda
Mlamba	33.19088	-13.95248	215_pdf.txt	Mlamba
Mlamba	33.19088	-13.95248	52_pdf.txt	Mlamba
Mlolo	35.43333	-15.41667	Food_Security_and_Agriculture_Project_List_from_MoAFS_March_2011.csv	Mlolo
Mlomba	35.5	-15.76667	28_pdf.txt	Mlomba
Mlomba	35.5	-15.76667	42_pdf.txt	Mlomba
Mlonyeni	33.26667	-13.98333	Food_Security_and_Agriculture_Project_List_from_MoAFS_March_2011.csv	Mlonyeni
Moffat	34.58204	-15.62454	30_pdf.txt	Moffat
Moto	33.96667	-13.35	30_pdf.txt	Moto
Mpakaka	35.85989	-14.72905	215_pdf.txt	Mpakaka
Mpakaka	35.85989	-14.72905	52_pdf.txt	Mpakaka
Mpama	35.46901	-14.60765	Food_Security_and_Agriculture_Project_List_from_MoAFS_March_2011.csv	Mpama
Mpanda	34.1	-11.85	Food_Security_and_Agriculture_Project_List_from_MoAFS_March_2011.csv	Mpanda
Mpanda	34.1	-11.85	IGPWP_Roads_project_sites0.csv	Mpanda
Mpanda	34.1	-11.85	IGPWP_Roads_project_sites1.csv	Mpanda
Mpanda	34.1	-11.85	IGPWP_Roads_project_sites.csv	Mpanda
Mpando	34.95586	-14.67771	Malawi_DFID_Assignments.csv	Mpando
Mpando	34.95586	-14.67771	Malawi_DFID_Assignments-Hanna_Murphy-Pack_s_conflicted_copy_2012-04-01-.csv	Mpando
Mpasu	34.65	-16.25	149_pdf.txt	Mpasu
Mpasu	34.65	-16.25	93_pdf.txt	Mpasu
Mpatamanga	34.73333	-15.71667	215_pdf.txt	Mpatamanga
Mpatamanga	34.73333	-15.71667	52_pdf.txt	Mpatamanga
Mpemba	34.95	-15.88333	217_pdf.txt	Mpemba
Mpemba	34.95	-15.88333	61_pdf.txt	Mpemba
Mpemba	34.95	-15.88333	IGPWP_Roads_project_sites0.csv	Mpemba
Mpemba	34.95	-15.88333	IGPWP_Roads_project_sites1.csv	Mpemba
Mpemba	34.95	-15.88333	IGPWP_Roads_project_sites.csv	Mpemba
Mphamba	35.18333	-17.05	IGPWP_Forestry_Project_sites0.csv	Mphamba
Mphamba	35.18333	-17.05	IGPWP_Forestry_Project_sites1.csv	Mphamba
Mphamba	35.18333	-17.05	IGPWP_Forestry_Project_sites.csv	Mphamba
Mphande	33.28288	-13.52373	197_pdf.txt	Mphande
Mphande	33.28288	-13.52373	30_pdf.txt	Mphande
Mphande	33.28288	-13.52373	46_pdf.txt	Mphande
Mphande	33.28288	-13.52373	48_pdf.txt	Mphande
Mphande	33.28288	-13.52373	49_pdf.txt	Mphande
Mpherere	33.84087	-13.26731	Food_Security_and_Agriculture_Project_List_from_MoAFS_March_2011.csv	Mpherere
Mphompha	34.05	-11.01667	Food_Security_and_Agriculture_Project_List_from_MoAFS_March_2011.csv	Mphompha
Mphuka	34.65	-16.25	Food_Security_and_Agriculture_Project_List_from_MoAFS_March_2011.csv	Mphuka
Mpingwe	35.1	-15.8	208_pdf.txt	Mpingwe
Mpingwe	35.1	-15.8	55_pdf.txt	Mpingwe
Mponda	35.28333	-16.25	197_pdf.txt	Mponda
Mponda	35.28333	-16.25	46_pdf.txt	Mponda
Mponela	33.74008	-13.53194	242_pdf.txt	Mponela
Mponela	33.74008	-13.53194	244_pdf.txt	Mponela
Mponela	33.74008	-13.53194	Food_Security_and_Agriculture_Project_List_from_MoAFS_March_2011.csv	Mponela
Mposa	34.91667	-16.31667	42_pdf.txt	Mposa
Mpunga	35.58333	-14.8	242_pdf.txt	Mpunga
Mpunga	35.58333	-14.8	244_pdf.txt	Mpunga
Msakambewa	33.91783	-13.53566	36_pdf.txt	Msakambewa
Msamala	34.33966	-13.24099	144_pdf.txt	Msamala
Msamala	34.33966	-13.24099	242_pdf.txt	Msamala
Msamala	34.33966	-13.24099	244_pdf.txt	Msamala
Msamala	34.33966	-13.24099	47_jpg.txt	Msamala
Msamala	34.33966	-13.24099	88_pdf.txt	Msamala
Msamala	34.33966	-13.24099	91_jpg.txt	Msamala
Msamala	34.33966	-13.24099	Food_Security_and_Agriculture_Project_List_from_MoAFS_March_2011.csv	Msamala
Msampha	33.58333	-13.66667	IGPWP_Forestry_Project_sites0.csv	Msampha
Msampha	33.58333	-13.66667	IGPWP_Forestry_Project_sites1.csv	Msampha
Msampha	33.58333	-13.66667	IGPWP_Forestry_Project_sites.csv	Msampha
Msosa	35.26667	-15.46667	147_pdf.txt	Msosa
Msosa	35.26667	-15.46667	192_pdf.txt	Msosa
Msosa	35.26667	-15.46667	193_pdf.txt	Msosa
Msosa	35.26667	-15.46667	90_pdf.txt	Msosa
Msowoya	33.9245	-11.04618	123_pdf.txt	Msowoya
Msowoya	33.9245	-11.04618	168_pdf.txt	Msowoya
Msowoya	33.9245	-11.04618	177_pdf.txt	Msowoya
Msowoya	33.9245	-11.04618	84_pdf.txt	Msowoya
Mtakataka	34.51896	-14.22558	215_pdf.txt	Mtakataka
Mtakataka	34.51896	-14.22558	52_pdf.txt	Mtakataka
Mtali	33.41667	-14	IGPWP_Forestry_Project_sites0.csv	Mtali
Mtali	33.41667	-14	IGPWP_Forestry_Project_sites1.csv	Mtali
Mtali	33.41667	-14	IGPWP_Forestry_Project_sites.csv	Mtali
Mtambo	35.09372	-14.40063	30_pdf.txt	Mtambo
Mtande	33.77109	-13.65638	215_pdf.txt	Mtande
Mtande	33.77109	-13.65638	52_pdf.txt	Mtande
Mtandula	33.51667	-14.03333	IGPWP_Forestry_Project_sites0.csv	Mtandula
Mtandula	33.51667	-14.03333	IGPWP_Forestry_Project_sites1.csv	Mtandula
Mtandula	33.51667	-14.03333	IGPWP_Forestry_Project_sites.csv	Mtandula
Mtema	35.18333	-17.06667	36_pdf.txt	Mtema
Mtema	35.18333	-17.06667	IGPWP_Forestry_Project_sites0.csv	Mtema
Mtema	35.18333	-17.06667	IGPWP_Forestry_Project_sites1.csv	Mtema
Mtema	35.18333	-17.06667	IGPWP_Forestry_Project_sites.csv	Mtema
Mtenje	33.06667	-13.66667	IGPWP_Forestry_Project_sites0.csv	Mtenje
Mtenje	33.06667	-13.66667	IGPWP_Forestry_Project_sites1.csv	Mtenje
Mtenje	33.06667	-13.66667	IGPWP_Forestry_Project_sites.csv	Mtenje
Mthumba	33.35	-13.68333	IGPWP_Roads_project_sites0.csv	Mthumba
Mthumba	33.35	-13.68333	IGPWP_Roads_project_sites1.csv	Mthumba
Mthumba	33.35	-13.68333	IGPWP_Roads_project_sites.csv	Mthumba
Mtondo	33.48333	-13.06667	2_pdf.txt	Mtondo
Mtondo	33.48333	-13.06667	41_pdf.txt	Mtondo
Mtondo	33.48333	-13.06667	IGPWP_Forestry_Project_sites0.csv	Mtondo
Mtondo	33.48333	-13.06667	IGPWP_Forestry_Project_sites1.csv	Mtondo
Mtondo	33.48333	-13.06667	IGPWP_Forestry_Project_sites.csv	Mtondo
Mtwalo	33.75	-11.38333	215_pdf.txt	Mtwalo
Mtwalo	33.75	-11.38333	52_pdf.txt	Mtwalo
Mulanje	35.5	-16.03163	105_pdf.txt	Mulanje
Mulanje	35.5	-16.03163	139_pdf.txt	Mulanje
Mulanje	35.5	-16.03163	162_pdf.txt	Mulanje
Mulanje	35.5	-16.03163	18_pdf.txt	Mulanje
Mulanje	35.5	-16.03163	197_pdf.txt	Mulanje
Mulanje	35.5	-16.03163	200_pdf.txt	Mulanje
Mulanje	35.5	-16.03163	202_pdf.txt	Mulanje
Mulanje	35.5	-16.03163	203_pdf.txt	Mulanje
Mulanje	35.5	-16.03163	204_pdf.txt	Mulanje
Mulanje	35.5	-16.03163	205_pdf.txt	Mulanje
Mulanje	35.5	-16.03163	207_pdf.txt	Mulanje
Mulanje	35.5	-16.03163	215_pdf.txt	Mulanje
Mulanje	35.5	-16.03163	22_pdf.txt	Mulanje
Mulanje	35.5	-16.03163	237_pdf.txt	Mulanje
Mulanje	35.5	-16.03163	238_pdf.txt	Mulanje
Mulanje	35.5	-16.03163	23_pdf.txt	Mulanje
Mulanje	35.5	-16.03163	240_pdf.txt	Mulanje
Mulanje	35.5	-16.03163	245_pdf.txt	Mulanje
Mulanje	35.5	-16.03163	247_pdf.txt	Mulanje
Mulanje	35.5	-16.03163	248_pdf.txt	Mulanje
Mulanje	35.5	-16.03163	25_pdf.txt	Mulanje
Mulanje	35.5	-16.03163	2_pdf.txt	Mulanje
Mulanje	35.5	-16.03163	30_pdf.txt	Mulanje
Mulanje	35.5	-16.03163	31_pdf.txt	Mulanje
Mulanje	35.5	-16.03163	35_pdf.txt	Mulanje
Mulanje	35.5	-16.03163	36_pdf.txt	Mulanje
Mulanje	35.5	-16.03163	37_pdf.txt	Mulanje
Mulanje	35.5	-16.03163	39_pdf.txt	Mulanje
Mulanje	35.5	-16.03163	40_pdf.txt	Mulanje
Mulanje	35.5	-16.03163	41_pdf.txt	Mulanje
Mulanje	35.5	-16.03163	42_pdf.txt	Mulanje
Mulanje	35.5	-16.03163	46_pdf.txt	Mulanje
Mulanje	35.5	-16.03163	47_jpg.txt	Mulanje
Mulanje	35.5	-16.03163	52_pdf.txt	Mulanje
Mulanje	35.5	-16.03163	54_pdf.txt	Mulanje
Mulanje	35.5	-16.03163	89_pdf.txt	Mulanje
Mulanje	35.5	-16.03163	91_jpg.txt	Mulanje
Mulanje	35.5	-16.03163	Food_Security_and_Agriculture_Project_List_from_MoAFS_March_2011.csv	Mulanje
Mundi	35.85	-14.71667	30_pdf.txt	Mundi
Mutawa	33.91667	-13.4	IGPWP_Forestry_Project_sites0.csv	Mutawa
Mutawa	33.91667	-13.4	IGPWP_Forestry_Project_sites1.csv	Mutawa
Mutawa	33.91667	-13.4	IGPWP_Forestry_Project_sites.csv	Mutawa
Mvula	33.88333	-13.43333	197_pdf.txt	Mvula
Mvula	33.88333	-13.43333	238_pdf.txt	Mvula
Mvula	33.88333	-13.43333	245_pdf.txt	Mvula
Mvula	33.88333	-13.43333	46_pdf.txt	Mvula
Mwale	34.71667	-15.08333	197_pdf.txt	Mwale
Mwale	34.71667	-15.08333	46_pdf.txt	Mwale
Mwambo	35.51441	-15.4356	36_pdf.txt	Mwambo
Mwana	35.56667	-15.83333	Food_Security_and_Agriculture_Project_List_from_MoAFS_March_2011.csv	Mwana
Mwanza	34.52479	-15.60262	105_pdf.txt	Mwanza
Mwanza	34.52479	-15.60262	15_pdf.txt	Mwanza
Mwanza	34.52479	-15.60262	162_pdf.txt	Mwanza
Mwanza	34.52479	-15.60262	206_pdf.txt	Mwanza
Mwanza	34.52479	-15.60262	215_pdf.txt	Mwanza
Mwanza	34.52479	-15.60262	235_pdf.txt	Mwanza
Mwanza	34.52479	-15.60262	236_pdf.txt	Mwanza
Mwanza	34.52479	-15.60262	238_pdf.txt	Mwanza
Mwanza	34.52479	-15.60262	239_pdf.txt	Mwanza
Mwanza	34.52479	-15.60262	23_pdf.txt	Mwanza
Mwanza	34.52479	-15.60262	241_pdf.txt	Mwanza
Mwanza	34.52479	-15.60262	242_pdf.txt	Mwanza
Mwanza	34.52479	-15.60262	244_pdf.txt	Mwanza
Mwanza	34.52479	-15.60262	245_pdf.txt	Mwanza
Mwanza	34.52479	-15.60262	246_pdf.txt	Mwanza
Mwanza	34.52479	-15.60262	247_pdf.txt	Mwanza
Mwanza	34.52479	-15.60262	28_pdf.txt	Mwanza
Mwanza	34.52479	-15.60262	42_pdf.txt	Mwanza
Mwanza	34.52479	-15.60262	52_pdf.txt	Mwanza
Mwanza	34.52479	-15.60262	53_pdf.txt	Mwanza
Mwanza	34.52479	-15.60262	Food_Security_and_Agriculture_Project_List_from_MoAFS_March_2011.csv	Mwanza
Mwanza	34.52479	-15.60262	IGPWP_Forestry_Project_sites0.csv	Mwanza
Mwanza	34.52479	-15.60262	IGPWP_Forestry_Project_sites1.csv	Mwanza
Mwanza	34.52479	-15.60262	IGPWP_Forestry_Project_sites.csv	Mwanza
Mwase	33.43333	-14.1	42_pdf.txt	Mwase
Mwase	33.43333	-14.1	IGPWP_Forestry_Project_sites0.csv	Mwase
Mwase	33.43333	-14.1	IGPWP_Forestry_Project_sites1.csv	Mwase
Mwase	33.43333	-14.1	IGPWP_Forestry_Project_sites.csv	Mwase
Mwaya	33.69739	-12.45828	206_pdf.txt	Mwaya
Mwaya	33.69739	-12.45828	53_pdf.txt	Mwaya
Mzimba	33.81667	-12.01667	139_pdf.txt	Mzimba
Mzimba	33.81667	-12.01667	14_pdf.txt	Mzimba
Mzimba	33.81667	-12.01667	15_pdf.txt	Mzimba
Mzimba	33.81667	-12.01667	186_pdf.txt	Mzimba
Mzimba	33.81667	-12.01667	215_pdf.txt	Mzimba
Mzimba	33.81667	-12.01667	216_pdf.txt	Mzimba
Mzimba	33.81667	-12.01667	235_pdf.txt	Mzimba
Mzimba	33.81667	-12.01667	236_pdf.txt	Mzimba
Mzimba	33.81667	-12.01667	237_pdf.txt	Mzimba
Mzimba	33.81667	-12.01667	238_pdf.txt	Mzimba
Mzimba	33.81667	-12.01667	240_pdf.txt	Mzimba
Mzimba	33.81667	-12.01667	242_pdf.txt	Mzimba
Mzimba	33.81667	-12.01667	243_pdf.txt	Mzimba
Mzimba	33.81667	-12.01667	244_pdf.txt	Mzimba
Mzimba	33.81667	-12.01667	245_pdf.txt	Mzimba
Mzimba	33.81667	-12.01667	246_pdf.txt	Mzimba
Mzimba	33.81667	-12.01667	247_pdf.txt	Mzimba
Mzimba	33.81667	-12.01667	249_pdf.txt	Mzimba
Mzimba	33.81667	-12.01667	250_pdf.txt	Mzimba
Mzimba	33.81667	-12.01667	251_pdf.txt	Mzimba
Mzimba	33.81667	-12.01667	30_pdf.txt	Mzimba
Mzimba	33.81667	-12.01667	36_pdf.txt	Mzimba
Mzimba	33.81667	-12.01667	39_pdf.txt	Mzimba
Mzimba	33.81667	-12.01667	42_jpg.txt	Mzimba
Mzimba	33.81667	-12.01667	42_pdf.txt	Mzimba
Mzimba	33.81667	-12.01667	52_pdf.txt	Mzimba
Mzimba	33.81667	-12.01667	60_pdf.txt	Mzimba
Mzimba	33.81667	-12.01667	86_jpg.txt	Mzimba
Mzimba	33.81667	-12.01667	89_pdf.txt	Mzimba
Mzimba	33.81667	-12.01667	96_pdf.txt	Mzimba
Mzimba	33.81667	-12.01667	Food_Security_and_Agriculture_Project_List_from_MoAFS_March_2011.csv	Mzimba
Mzumara	33.67325	-12.81838	215_pdf.txt	Mzumara
Mzumara	33.67325	-12.81838	52_pdf.txt	Mzumara
Mzuzu	34.02071	-11.46556	109_pdf.txt	Mzuzu
Mzuzu	34.02071	-11.46556	139_pdf.txt	Mzuzu
Mzuzu	34.02071	-11.46556	13_pdf.txt	Mzuzu
Mzuzu	34.02071	-11.46556	143_pdf.txt	Mzuzu
Mzuzu	34.02071	-11.46556	147_pdf.txt	Mzuzu
Mzuzu	34.02071	-11.46556	189_pdf.txt	Mzuzu
Mzuzu	34.02071	-11.46556	192_pdf.txt	Mzuzu
Mzuzu	34.02071	-11.46556	193_pdf.txt	Mzuzu
Mzuzu	34.02071	-11.46556	195_pdf.txt	Mzuzu
Mzuzu	34.02071	-11.46556	197_pdf.txt	Mzuzu
Mzuzu	34.02071	-11.46556	199_pdf.txt	Mzuzu
Mzuzu	34.02071	-11.46556	201_pdf.txt	Mzuzu
Mzuzu	34.02071	-11.46556	206_pdf.txt	Mzuzu
Mzuzu	34.02071	-11.46556	207_pdf.txt	Mzuzu
Mzuzu	34.02071	-11.46556	208_pdf.txt	Mzuzu
Mzuzu	34.02071	-11.46556	215_pdf.txt	Mzuzu
Mzuzu	34.02071	-11.46556	218_pdf.txt	Mzuzu
Mzuzu	34.02071	-11.46556	221_pdf.txt	Mzuzu
Mzuzu	34.02071	-11.46556	235_pdf.txt	Mzuzu
Mzuzu	34.02071	-11.46556	236_pdf.txt	Mzuzu
Mzuzu	34.02071	-11.46556	242_pdf.txt	Mzuzu
Mzuzu	34.02071	-11.46556	244_pdf.txt	Mzuzu
Mzuzu	34.02071	-11.46556	246_pdf.txt	Mzuzu
Mzuzu	34.02071	-11.46556	247_pdf.txt	Mzuzu
Mzuzu	34.02071	-11.46556	250_pdf.txt	Mzuzu
Mzuzu	34.02071	-11.46556	251_pdf.txt	Mzuzu
Mzuzu	34.02071	-11.46556	31_pdf.txt	Mzuzu
Mzuzu	34.02071	-11.46556	39_pdf.txt	Mzuzu
Mzuzu	34.02071	-11.46556	3_pdf.txt	Mzuzu
Mzuzu	34.02071	-11.46556	42_jpg.txt	Mzuzu
Mzuzu	34.02071	-11.46556	45_pdf.txt	Mzuzu
Mzuzu	34.02071	-11.46556	46_pdf.txt	Mzuzu
Mzuzu	34.02071	-11.46556	48_pdf.txt	Mzuzu
Mzuzu	34.02071	-11.46556	49_pdf.txt	Mzuzu
Mzuzu	34.02071	-11.46556	51_pdf.txt	Mzuzu
Mzuzu	34.02071	-11.46556	52_pdf.txt	Mzuzu
Mzuzu	34.02071	-11.46556	53_pdf.txt	Mzuzu
Mzuzu	34.02071	-11.46556	54_pdf.txt	Mzuzu
Mzuzu	34.02071	-11.46556	55_pdf.txt	Mzuzu
Mzuzu	34.02071	-11.46556	64_pdf.txt	Mzuzu
Mzuzu	34.02071	-11.46556	86_jpg.txt	Mzuzu
Mzuzu	34.02071	-11.46556	86_pdf.txt	Mzuzu
Mzuzu	34.02071	-11.46556	89_pdf.txt	Mzuzu
Mzuzu	34.02071	-11.46556	90_pdf.txt	Mzuzu
Mzuzu	34.02071	-11.46556	Food_Security_and_Agriculture_Project_List_from_MoAFS_March_2011.csv	Mzuzu
Namalindi	35.5	-15.23333	IGPWP_Roads_project_sites0.csv	Namalindi
Namalindi	35.5	-15.23333	IGPWP_Roads_project_sites1.csv	Namalindi
Namalindi	35.5	-15.23333	IGPWP_Roads_project_sites.csv	Namalindi
Namandanje	35.30112	-14.87652	28_pdf.txt	Namandanje
Namandanje	35.30112	-14.87652	42_pdf.txt	Namandanje
Namanja	35.67749	-14.9641	28_pdf.txt	Namanja
Namanja	35.67749	-14.9641	42_pdf.txt	Namanja
Nambera	32.96667	-13.5	IGPWP_Forestry_Project_sites0.csv	Nambera
Nambera	32.96667	-13.5	IGPWP_Forestry_Project_sites1.csv	Nambera
Nambera	32.96667	-13.5	IGPWP_Forestry_Project_sites.csv	Nambera
Nambuma	33.60337	-13.70402	215_pdf.txt	Nambuma
Nambuma	33.60337	-13.70402	52_pdf.txt	Nambuma
Namikoko	35.18333	-15.93333	IGPWP_Roads_project_sites0.csv	Namikoko
Namikoko	35.18333	-15.93333	IGPWP_Roads_project_sites1.csv	Namikoko
Namikoko	35.18333	-15.93333	IGPWP_Roads_project_sites.csv	Namikoko
Naminga	35.51667	-15.73333	215_pdf.txt	Naminga
Naminga	35.51667	-15.73333	52_pdf.txt	Naminga
Namingazi	35.41667	-15.35	IGPWP_Roads_project_sites0.csv	Namingazi
Namingazi	35.41667	-15.35	IGPWP_Roads_project_sites1.csv	Namingazi
Namingazi	35.41667	-15.35	IGPWP_Roads_project_sites.csv	Namingazi
Namwera	35.5	-14.35	186_pdf.txt	Namwera
Namwera	35.5	-14.35	215_pdf.txt	Namwera
Namwera	35.5	-14.35	238_pdf.txt	Namwera
Namwera	35.5	-14.35	245_pdf.txt	Namwera
Namwera	35.5	-14.35	52_pdf.txt	Namwera
Namwera	35.5	-14.35	96_pdf.txt	Namwera
Namwiri	34.75886	-14.47177	215_pdf.txt	Namwiri
Namwiri	34.75886	-14.47177	52_pdf.txt	Namwiri
Nancholi	34.71667	-16.15	IGPWP_Roads_project_sites0.csv	Nancholi
Nancholi	34.71667	-16.15	IGPWP_Roads_project_sites1.csv	Nancholi
Nancholi	34.71667	-16.15	IGPWP_Roads_project_sites.csv	Nancholi
Nangoma	35.38333	-15.68333	30_pdf.txt	Nangoma
Nankumba	34.82269	-14.36446	247_pdf.txt	Nankumba
Nankumba	34.82269	-14.36446	Food_Security_and_Agriculture_Project_List_from_MoAFS_March_2011.csv	Nankumba
Nansadi	35.19542	-15.88512	215_pdf.txt	Nansadi
Nansadi	35.19542	-15.88512	52_pdf.txt	Nansadi
Nansadi	35.19542	-15.88512	IGPWP_Roads_project_sites0.csv	Nansadi
Nansadi	35.19542	-15.88512	IGPWP_Roads_project_sites1.csv	Nansadi
Nansadi	35.19542	-15.88512	IGPWP_Roads_project_sites.csv	Nansadi
Nansenga	34.63584	-15.12108	32_pdf.txt	Nansenga
Nathenje	33.91076	-14.08463	186_pdf.txt	Nathenje
Nathenje	33.91076	-14.08463	203_pdf.txt	Nathenje
Nathenje	33.91076	-14.08463	204_pdf.txt	Nathenje
Nathenje	33.91076	-14.08463	205_pdf.txt	Nathenje
Nathenje	33.91076	-14.08463	96_pdf.txt	Nathenje
Nathenje	33.91076	-14.08463	Food_Security_and_Agriculture_Project_List_from_MoAFS_March_2011.csv	Nathenje
Nchalo	34.86889	-16.26346	134_pdf.txt	Nchalo
Nchalo	34.86889	-16.26346	149_pdf.txt	Nchalo
Nchalo	34.86889	-16.26346	188_pdf.txt	Nchalo
Nchalo	34.86889	-16.26346	18_pdf.txt	Nchalo
Nchalo	34.86889	-16.26346	209_pdf.txt	Nchalo
Nchalo	34.86889	-16.26346	222_pdf.txt	Nchalo
Nchalo	34.86889	-16.26346	235_pdf.txt	Nchalo
Nchalo	34.86889	-16.26346	58_pdf.txt	Nchalo
Nchalo	34.86889	-16.26346	67_pdf.txt	Nchalo
Nchalo	34.86889	-16.26346	93_pdf.txt	Nchalo
Neno	34.65343	-15.39805	105_pdf.txt	Neno
Neno	34.65343	-15.39805	15_pdf.txt	Neno
Neno	34.65343	-15.39805	162_pdf.txt	Neno
Neno	34.65343	-15.39805	206_pdf.txt	Neno
Neno	34.65343	-15.39805	239_pdf.txt	Neno
Neno	34.65343	-15.39805	241_pdf.txt	Neno
Neno	34.65343	-15.39805	28_pdf.txt	Neno
Neno	34.65343	-15.39805	36_pdf.txt	Neno
Neno	34.65343	-15.39805	42_pdf.txt	Neno
Neno	34.65343	-15.39805	53_pdf.txt	Neno
Neno	34.65343	-15.39805	Food_Security_and_Agriculture_Project_List_from_MoAFS_March_2011.csv	Neno
Ngabu	35.21659	-16.96535	18_pdf.txt	Ngabu
Ngokwe	35.61667	-14.75	42_pdf.txt	Ngokwe
Ngoma	34.2	-13.96667	149_pdf.txt	Ngoma
Ngoma	34.2	-13.96667	93_pdf.txt	Ngoma
Ngomano	35.7	-14.81667	IGPWP_Roads_project_sites0.csv	Ngomano
Ngomano	35.7	-14.81667	IGPWP_Roads_project_sites1.csv	Ngomano
Ngomano	35.7	-14.81667	IGPWP_Roads_project_sites.csv	Ngomano
Ngona	34.41667	-14.35	IGPWP_Forestry_Project_sites0.csv	Ngona
Ngona	34.41667	-14.35	IGPWP_Forestry_Project_sites1.csv	Ngona
Ngona	34.41667	-14.35	IGPWP_Forestry_Project_sites.csv	Ngona
Ngoni	35.23333	-16.95	36_pdf.txt	Ngoni
Ngozi	35.68333	-15.65	36_pdf.txt	Ngozi
Njuli	35.15	-15.65	110_pdf.txt	Njuli
Njuli	35.15	-15.65	138_pdf.txt	Njuli
Nkata	35.38338	-14.57437	206_pdf.txt	Nkata
Nkata	35.38338	-14.57437	53_pdf.txt	Nkata
Nkhata	34.33333	-11.61667	105_pdf.txt	Nkhata
Nkhata	34.33333	-11.61667	162_pdf.txt	Nkhata
Nkhata	34.33333	-11.61667	168_pdf.txt	Nkhata
Nkhata	34.33333	-11.61667	207_pdf.txt	Nkhata
Nkhata	34.33333	-11.61667	236_pdf.txt	Nkhata
Nkhata	34.33333	-11.61667	246_pdf.txt	Nkhata
Nkhata	34.33333	-11.61667	247_pdf.txt	Nkhata
Nkhata	34.33333	-11.61667	251_pdf.txt	Nkhata
Nkhata	34.33333	-11.61667	3_pdf.txt	Nkhata
Nkhata	34.33333	-11.61667	42_pdf.txt	Nkhata
Nkhata	34.33333	-11.61667	54_pdf.txt	Nkhata
Nkhata	34.33333	-11.61667	6_pdf.txt	Nkhata
Nkhata	34.33333	-11.61667	84_pdf.txt	Nkhata
Nkhoma	33.4	-12.71667	139_pdf.txt	Nkhoma
Nkhoma	33.4	-12.71667	18_pdf.txt	Nkhoma
Nkhoma	33.4	-12.71667	239_pdf.txt	Nkhoma
Nkhoma	33.4	-12.71667	241_pdf.txt	Nkhoma
Nkhoma	33.4	-12.71667	255_pdf.txt	Nkhoma
Nkhoma	33.4	-12.71667	32_pdf.txt	Nkhoma
Nkhoma	33.4	-12.71667	89_pdf.txt	Nkhoma
Nkhoma	33.4	-12.71667	Food_Security_and_Agriculture_Project_List_from_MoAFS_March_2011.csv	Nkhoma
Nkhotakota	34.29614	-12.92744	126_pdf.txt	Nkhotakota
Nkhotakota	34.29614	-12.92744	139_pdf.txt	Nkhotakota
Nkhotakota	34.29614	-12.92744	169_pdf.txt	Nkhotakota
Nkhotakota	34.29614	-12.92744	186_pdf.txt	Nkhotakota
Nkhotakota	34.29614	-12.92744	222_pdf.txt	Nkhotakota
Nkhotakota	34.29614	-12.92744	235_pdf.txt	Nkhotakota
Nkhotakota	34.29614	-12.92744	236_pdf.txt	Nkhotakota
Nkhotakota	34.29614	-12.92744	246_pdf.txt	Nkhotakota
Nkhotakota	34.29614	-12.92744	247_pdf.txt	Nkhotakota
Nkhotakota	34.29614	-12.92744	254_pdf.txt	Nkhotakota
Nkhotakota	34.29614	-12.92744	32_pdf.txt	Nkhotakota
Nkhotakota	34.29614	-12.92744	36_pdf.txt	Nkhotakota
Nkhotakota	34.29614	-12.92744	39_pdf.txt	Nkhotakota
Nkhotakota	34.29614	-12.92744	3_pdf.txt	Nkhotakota
Nkhotakota	34.29614	-12.92744	67_pdf.txt	Nkhotakota
Nkhotakota	34.29614	-12.92744	89_pdf.txt	Nkhotakota
Nkhotakota	34.29614	-12.92744	96_pdf.txt	Nkhotakota
Nkhotakota	34.29614	-12.92744	Food_Security_and_Agriculture_Project_List_from_MoAFS_March_2011.csv	Nkhotakota
Nkhwangwa	34.86667	-16.48333	IGPWP_Forestry_Project_sites0.csv	Nkhwangwa
Nkhwangwa	34.86667	-16.48333	IGPWP_Forestry_Project_sites1.csv	Nkhwangwa
Nkhwangwa	34.86667	-16.48333	IGPWP_Forestry_Project_sites.csv	Nkhwangwa
Nkhwangwa	34.86667	-16.48333	IGPWP_Roads_project_sites0.csv	Nkhwangwa
Nkhwangwa	34.86667	-16.48333	IGPWP_Roads_project_sites1.csv	Nkhwangwa
Nkhwangwa	34.86667	-16.48333	IGPWP_Roads_project_sites.csv	Nkhwangwa
Nkopola	35.1322	-14.31882	16_pdf.txt	Nkopola
Nkwazi	33.22934	-13.92249	206_pdf.txt	Nkwazi
Nkwazi	33.22934	-13.92249	53_pdf.txt	Nkwazi
Nsanama	35.51667	-14.96667	203_pdf.txt	Nsanama
Nsanama	35.51667	-14.96667	204_pdf.txt	Nsanama
Nsanama	35.51667	-14.96667	205_pdf.txt	Nsanama
Nsanama	35.51667	-14.96667	215_pdf.txt	Nsanama
Nsanama	35.51667	-14.96667	28_pdf.txt	Nsanama
Nsanama	35.51667	-14.96667	42_pdf.txt	Nsanama
Nsanama	35.51667	-14.96667	52_pdf.txt	Nsanama
Nsanje	35.14762	-15.8637	122_pdf.txt	Nsanje
Nsanje	35.14762	-15.8637	130_pdf.txt	Nsanje
Nsanje	35.14762	-15.8637	139_pdf.txt	Nsanje
Nsanje	35.14762	-15.8637	149_pdf.txt	Nsanje
Nsanje	35.14762	-15.8637	176_pdf.txt	Nsanje
Nsanje	35.14762	-15.8637	179_pdf.txt	Nsanje
Nsanje	35.14762	-15.8637	185_pdf.txt	Nsanje
Nsanje	35.14762	-15.8637	18_pdf.txt	Nsanje
Nsanje	35.14762	-15.8637	215_pdf.txt	Nsanje
Nsanje	35.14762	-15.8637	235_pdf.txt	Nsanje
Nsanje	35.14762	-15.8637	236_pdf.txt	Nsanje
Nsanje	35.14762	-15.8637	246_pdf.txt	Nsanje
Nsanje	35.14762	-15.8637	247_pdf.txt	Nsanje
Nsanje	35.14762	-15.8637	253_pdf.txt	Nsanje
Nsanje	35.14762	-15.8637	2_pdf.txt	Nsanje
Nsanje	35.14762	-15.8637	3_pdf.txt	Nsanje
Nsanje	35.14762	-15.8637	41_pdf.txt	Nsanje
Nsanje	35.14762	-15.8637	42_jpg.txt	Nsanje
Nsanje	35.14762	-15.8637	42_pdf.txt	Nsanje
Nsanje	35.14762	-15.8637	52_pdf.txt	Nsanje
Nsanje	35.14762	-15.8637	5_pdf.txt	Nsanje
Nsanje	35.14762	-15.8637	80_pdf.txt	Nsanje
Nsanje	35.14762	-15.8637	86_jpg.txt	Nsanje
Nsanje	35.14762	-15.8637	89_pdf.txt	Nsanje
Nsanje	35.14762	-15.8637	93_pdf.txt	Nsanje
Nsanje	35.14762	-15.8637	Food_Security_and_Agriculture_Project_List_from_MoAFS_March_2011.csv	Nsanje
Nsanje	35.14762	-15.8637	IGPWP_Roads_project_sites0.csv	Nsanje
Nsanje	35.14762	-15.8637	IGPWP_Roads_project_sites1.csv	Nsanje
Nsanje	35.14762	-15.8637	IGPWP_Roads_project_sites.csv	Nsanje
Nsonde	35.68333	-14.76667	215_pdf.txt	Nsonde
Nsonde	35.68333	-14.76667	52_pdf.txt	Nsonde
Ntaja	34.52207	-15.40641	203_pdf.txt	Ntaja
Ntaja	34.52207	-15.40641	204_pdf.txt	Ntaja
Ntaja	34.52207	-15.40641	205_pdf.txt	Ntaja
Ntaja	34.52207	-15.40641	215_pdf.txt	Ntaja
Ntaja	34.52207	-15.40641	28_pdf.txt	Ntaja
Ntaja	34.52207	-15.40641	42_pdf.txt	Ntaja
Ntaja	34.52207	-15.40641	52_pdf.txt	Ntaja
Ntcheu	34.63586	-14.82027	105_pdf.txt	Ntcheu
Ntcheu	34.63586	-14.82027	139_pdf.txt	Ntcheu
Ntcheu	34.63586	-14.82027	144_pdf.txt	Ntcheu
Ntcheu	34.63586	-14.82027	147_pdf.txt	Ntcheu
Ntcheu	34.63586	-14.82027	162_pdf.txt	Ntcheu
Ntcheu	34.63586	-14.82027	215_pdf.txt	Ntcheu
Ntcheu	34.63586	-14.82027	235_pdf.txt	Ntcheu
Ntcheu	34.63586	-14.82027	236_pdf.txt	Ntcheu
Ntcheu	34.63586	-14.82027	239_pdf.txt	Ntcheu
Ntcheu	34.63586	-14.82027	241_pdf.txt	Ntcheu
Ntcheu	34.63586	-14.82027	246_pdf.txt	Ntcheu
Ntcheu	34.63586	-14.82027	247_pdf.txt	Ntcheu
Ntcheu	34.63586	-14.82027	42_jpg.txt	Ntcheu
Ntcheu	34.63586	-14.82027	42_pdf.txt	Ntcheu
Ntcheu	34.63586	-14.82027	52_pdf.txt	Ntcheu
Ntcheu	34.63586	-14.82027	86_jpg.txt	Ntcheu
Ntcheu	34.63586	-14.82027	88_pdf.txt	Ntcheu
Ntcheu	34.63586	-14.82027	89_pdf.txt	Ntcheu
Ntcheu	34.63586	-14.82027	90_pdf.txt	Ntcheu
Ntcheu	34.63586	-14.82027	Food_Security_and_Agriculture_Project_List_from_MoAFS_March_2011.csv	Ntcheu
Ntcheu	34.63586	-14.82027	Malawi_DFID_Assignments.csv	Ntcheu
Ntcheu	34.63586	-14.82027	Malawi_DFID_Assignments-Hanna_Murphy-Pack_s_conflicted_copy_2012-04-01-.csv	Ntcheu
Ntchisi	33.9149	-13.52775	105_pdf.txt	Ntchisi
Ntchisi	33.9149	-13.52775	139_pdf.txt	Ntchisi
Ntchisi	33.9149	-13.52775	147_pdf.txt	Ntchisi
Ntchisi	33.9149	-13.52775	162_pdf.txt	Ntchisi
Ntchisi	33.9149	-13.52775	215_pdf.txt	Ntchisi
Ntchisi	33.9149	-13.52775	235_pdf.txt	Ntchisi
Ntchisi	33.9149	-13.52775	236_pdf.txt	Ntchisi
Ntchisi	33.9149	-13.52775	237_pdf.txt	Ntchisi
Ntchisi	33.9149	-13.52775	238_pdf.txt	Ntchisi
Ntchisi	33.9149	-13.52775	240_pdf.txt	Ntchisi
Ntchisi	33.9149	-13.52775	243_pdf.txt	Ntchisi
Ntchisi	33.9149	-13.52775	245_pdf.txt	Ntchisi
Ntchisi	33.9149	-13.52775	246_pdf.txt	Ntchisi
Ntchisi	33.9149	-13.52775	247_pdf.txt	Ntchisi
Ntchisi	33.9149	-13.52775	253_pdf.txt	Ntchisi
Ntchisi	33.9149	-13.52775	39_pdf.txt	Ntchisi
Ntchisi	33.9149	-13.52775	42_jpg.txt	Ntchisi
Ntchisi	33.9149	-13.52775	42_pdf.txt	Ntchisi
Ntchisi	33.9149	-13.52775	52_pdf.txt	Ntchisi
Ntchisi	33.9149	-13.52775	86_jpg.txt	Ntchisi
Ntchisi	33.9149	-13.52775	89_pdf.txt	Ntchisi
Ntchisi	33.9149	-13.52775	90_pdf.txt	Ntchisi
Ntchisi	33.9149	-13.52775	Food_Security_and_Agriculture_Project_List_from_MoAFS_March_2011.csv	Ntchisi
Nthala	34.06667	-14.21667	30_pdf.txt	Nthala
Nthondo	33.43333	-14.03333	2_pdf.txt	Nthondo
Nthondo	33.43333	-14.03333	41_pdf.txt	Nthondo
Nthondo	33.43333	-14.03333	Food_Security_and_Agriculture_Project_List_from_MoAFS_March_2011.csv	Nthondo
Nthondowa	33.57578	-13.68987	IGPWP_Forestry_Project_sites0.csv	Nthondowa
Nthondowa	33.57578	-13.68987	IGPWP_Forestry_Project_sites1.csv	Nthondowa
Nthondowa	33.57578	-13.68987	IGPWP_Forestry_Project_sites.csv	Nthondowa
Nyalugwe	33.45883	-11.401	IGPWP_Roads_project_sites0.csv	Nyalugwe
Nyalugwe	33.45883	-11.401	IGPWP_Roads_project_sites1.csv	Nyalugwe
Nyalugwe	33.45883	-11.401	IGPWP_Roads_project_sites.csv	Nyalugwe
Nyambalo	34.4	-13.56667	30_pdf.txt	Nyambalo
Nyambalo	34.4	-13.56667	IGPWP_Irrigation_Projects_sites0.csv	Nyambalo
Nyambalo	34.4	-13.56667	IGPWP_Irrigation_Projects_sites1.csv	Nyambalo
Nyambalo	34.4	-13.56667	IGPWP_Irrigation_Projects_sites.csv	Nyambalo
Nyambalo	34.4	-13.56667	IGPWP_Roads_project_sites0.csv	Nyambalo
Nyambalo	34.4	-13.56667	IGPWP_Roads_project_sites1.csv	Nyambalo
Nyambalo	34.4	-13.56667	IGPWP_Roads_project_sites.csv	Nyambalo
Nyambi	35.56667	-14.68333	10_pdf.txt	Nyambi
Nyambi	35.56667	-14.68333	28_pdf.txt	Nyambi
Nyambi	35.56667	-14.68333	42_pdf.txt	Nyambi
Nyani	35.4	-15.33333	30_pdf.txt	Nyani
Nyirenda	33.68333	-12.63333	197_pdf.txt	Nyirenda
Nyirenda	33.68333	-12.63333	46_pdf.txt	Nyirenda
Pende	34.71667	-16.03333	IGPWP_Roads_project_sites0.csv	Pende
Pende	34.71667	-16.03333	IGPWP_Roads_project_sites1.csv	Pende
Pende	34.71667	-16.03333	IGPWP_Roads_project_sites.csv	Pende
Phalombe	35.65067	-15.80635	109_pdf.txt	Phalombe
Phalombe	35.65067	-15.80635	139_pdf.txt	Phalombe
Phalombe	35.65067	-15.80635	189_pdf.txt	Phalombe
Phalombe	35.65067	-15.80635	18_pdf.txt	Phalombe
Phalombe	35.65067	-15.80635	215_pdf.txt	Phalombe
Phalombe	35.65067	-15.80635	236_pdf.txt	Phalombe
Phalombe	35.65067	-15.80635	238_pdf.txt	Phalombe
Phalombe	35.65067	-15.80635	23_pdf.txt	Phalombe
Phalombe	35.65067	-15.80635	242_pdf.txt	Phalombe
Phalombe	35.65067	-15.80635	243_pdf.txt	Phalombe
Phalombe	35.65067	-15.80635	244_pdf.txt	Phalombe
Phalombe	35.65067	-15.80635	245_pdf.txt	Phalombe
Phalombe	35.65067	-15.80635	246_pdf.txt	Phalombe
Phalombe	35.65067	-15.80635	247_pdf.txt	Phalombe
Phalombe	35.65067	-15.80635	253_pdf.txt	Phalombe
Phalombe	35.65067	-15.80635	30_pdf.txt	Phalombe
Phalombe	35.65067	-15.80635	37_pdf.txt	Phalombe
Phalombe	35.65067	-15.80635	3_pdf.txt	Phalombe
Phalombe	35.65067	-15.80635	42_pdf.txt	Phalombe
Phalombe	35.65067	-15.80635	52_pdf.txt	Phalombe
Phalombe	35.65067	-15.80635	89_pdf.txt	Phalombe
Phalombe	35.65067	-15.80635	Food_Security_and_Agriculture_Project_List_from_MoAFS_March_2011.csv	Phalombe
Phalula	34.89028	-15.2244	242_pdf.txt	Phalula
Phalula	34.89028	-15.2244	244_pdf.txt	Phalula
Phambala	33.96667	-14.11667	242_pdf.txt	Phambala
Phambala	33.96667	-14.11667	244_pdf.txt	Phambala
Phanda	34.48333	-15.71667	IGPWP_Roads_project_sites0.csv	Phanda
Phanda	34.48333	-15.71667	IGPWP_Roads_project_sites1.csv	Phanda
Phanda	34.48333	-15.71667	IGPWP_Roads_project_sites.csv	Phanda
Phaso	34.08333	-11.73333	2_pdf.txt	Phaso
Phaso	34.08333	-11.73333	41_pdf.txt	Phaso
Phiri	33.78333	-11.38333	192_pdf.txt	Phiri
Phiri	33.78333	-11.38333	193_pdf.txt	Phiri
Phiri	33.78333	-11.38333	IGPWP_Forestry_Project_sites0.csv	Phiri
Phiri	33.78333	-11.38333	IGPWP_Forestry_Project_sites1.csv	Phiri
Phiri	33.78333	-11.38333	IGPWP_Forestry_Project_sites.csv	Phiri
Phoka	33.30949	-12.83904	215_pdf.txt	Phoka
Phoka	33.30949	-12.83904	251_pdf.txt	Phoka
Phoka	33.30949	-12.83904	52_pdf.txt	Phoka
Pinda	33.14718	-13.9124	215_pdf.txt	Pinda
Pinda	33.14718	-13.9124	52_pdf.txt	Pinda
Pinda	33.14718	-13.9124	IGPWP_Forestry_Project_sites0.csv	Pinda
Pinda	33.14718	-13.9124	IGPWP_Forestry_Project_sites1.csv	Pinda
Pinda	33.14718	-13.9124	IGPWP_Forestry_Project_sites.csv	Pinda
Robert	33.20462	-9.5235	105_pdf.txt	Robert
Robert	33.20462	-9.5235	162_pdf.txt	Robert
Robert	33.20462	-9.5235	255_pdf.txt	Robert
Robert	33.20462	-9.5235	30_pdf.txt	Robert
Rukuru	33.76667	-12.43333	14_pdf.txt	Rukuru
Rukuru	33.76667	-12.43333	247_pdf.txt	Rukuru
Rumphi	33.90621	-11.67367	105_pdf.txt	Rumphi
Rumphi	33.90621	-11.67367	126_pdf.txt	Rumphi
Rumphi	33.90621	-11.67367	12_pdf.txt	Rumphi
Rumphi	33.90621	-11.67367	139_pdf.txt	Rumphi
Rumphi	33.90621	-11.67367	162_pdf.txt	Rumphi
Rumphi	33.90621	-11.67367	169_pdf.txt	Rumphi
Rumphi	33.90621	-11.67367	206_pdf.txt	Rumphi
Rumphi	33.90621	-11.67367	215_pdf.txt	Rumphi
Rumphi	33.90621	-11.67367	216_pdf.txt	Rumphi
Rumphi	33.90621	-11.67367	235_pdf.txt	Rumphi
Rumphi	33.90621	-11.67367	236_pdf.txt	Rumphi
Rumphi	33.90621	-11.67367	242_pdf.txt	Rumphi
Rumphi	33.90621	-11.67367	244_pdf.txt	Rumphi
Rumphi	33.90621	-11.67367	246_pdf.txt	Rumphi
Rumphi	33.90621	-11.67367	247_pdf.txt	Rumphi
Rumphi	33.90621	-11.67367	251_pdf.txt	Rumphi
Rumphi	33.90621	-11.67367	25_pdf.txt	Rumphi
Rumphi	33.90621	-11.67367	32_pdf.txt	Rumphi
Rumphi	33.90621	-11.67367	35_pdf.txt	Rumphi
Rumphi	33.90621	-11.67367	36_pdf.txt	Rumphi
Rumphi	33.90621	-11.67367	39_pdf.txt	Rumphi
Rumphi	33.90621	-11.67367	3_pdf.txt	Rumphi
Rumphi	33.90621	-11.67367	42_jpg.txt	Rumphi
Rumphi	33.90621	-11.67367	42_pdf.txt	Rumphi
Rumphi	33.90621	-11.67367	52_pdf.txt	Rumphi
Rumphi	33.90621	-11.67367	53_pdf.txt	Rumphi
Rumphi	33.90621	-11.67367	60_pdf.txt	Rumphi
Rumphi	33.90621	-11.67367	86_jpg.txt	Rumphi
Rumphi	33.90621	-11.67367	89_pdf.txt	Rumphi
Rumphi	33.90621	-11.67367	Food_Security_and_Agriculture_Project_List_from_MoAFS_March_2011.csv	Rumphi
Saidi	35.56667	-14.98333	30_pdf.txt	Saidi
Salima	34.58333	-13.75	109_pdf.txt	Salima
Salima	34.58333	-13.75	139_pdf.txt	Salima
Salima	34.58333	-13.75	147_pdf.txt	Salima
Salima	34.58333	-13.75	186_pdf.txt	Salima
Salima	34.58333	-13.75	189_pdf.txt	Salima
Salima	34.58333	-13.75	215_pdf.txt	Salima
Salima	34.58333	-13.75	216_pdf.txt	Salima
Salima	34.58333	-13.75	222_pdf.txt	Salima
Salima	34.58333	-13.75	236_pdf.txt	Salima
Salima	34.58333	-13.75	238_pdf.txt	Salima
Salima	34.58333	-13.75	242_pdf.txt	Salima
Salima	34.58333	-13.75	244_pdf.txt	Salima
Salima	34.58333	-13.75	245_pdf.txt	Salima
Salima	34.58333	-13.75	246_pdf.txt	Salima
Salima	34.58333	-13.75	247_pdf.txt	Salima
Salima	34.58333	-13.75	254_pdf.txt	Salima
Salima	34.58333	-13.75	32_pdf.txt	Salima
Salima	34.58333	-13.75	3_pdf.txt	Salima
Salima	34.58333	-13.75	42_jpg.txt	Salima
Salima	34.58333	-13.75	42_pdf.txt	Salima
Salima	34.58333	-13.75	52_pdf.txt	Salima
Salima	34.58333	-13.75	60_pdf.txt	Salima
Salima	34.58333	-13.75	67_pdf.txt	Salima
Salima	34.58333	-13.75	86_jpg.txt	Salima
Salima	34.58333	-13.75	89_pdf.txt	Salima
Salima	34.58333	-13.75	90_pdf.txt	Salima
Salima	34.58333	-13.75	96_pdf.txt	Salima
Salima	34.58333	-13.75	Food_Security_and_Agriculture_Project_List_from_MoAFS_March_2011.csv	Salima
Sambo	33.61667	-12.3	215_pdf.txt	Sambo
Sambo	33.61667	-12.3	30_pdf.txt	Sambo
Sambo	33.61667	-12.3	52_pdf.txt	Sambo
Sandama	35.29501	-16.20712	IGPWP_Roads_project_sites0.csv	Sandama
Sandama	35.29501	-16.20712	IGPWP_Roads_project_sites1.csv	Sandama
Sandama	35.29501	-16.20712	IGPWP_Roads_project_sites.csv	Sandama
Sanga	33.45	-9.88333	Food_Security_and_Agriculture_Project_List_from_MoAFS_March_2011.csv	Sanga
Santhe	33.43069	-13.93082	249_pdf.txt	Santhe
Sapitwa	35.59058	-15.94856	23_pdf.txt	Sapitwa
Sapitwa	35.59058	-15.94856	30_pdf.txt	Sapitwa
Senga	34.63333	-13.71667	215_pdf.txt	Senga
Senga	34.63333	-13.71667	52_pdf.txt	Senga
Senzani	34.85803	-15.06333	Food_Security_and_Agriculture_Project_List_from_MoAFS_March_2011.csv	Senzani
Shawa	33.6	-12.63333	112_pdf.txt	Shawa
Shawa	33.6	-12.63333	135_pdf.txt	Shawa
Shawa	33.6	-12.63333	154_pdf.txt	Shawa
Shawa	33.6	-12.63333	99_pdf.txt	Shawa
Simlemba	33.67447	-12.74442	Food_Security_and_Agriculture_Project_List_from_MoAFS_March_2011.csv	Simlemba
Singano	35.05	-16.26667	215_pdf.txt	Singano
Singano	35.05	-16.26667	52_pdf.txt	Singano
Sitolo	33.45	-12.56667	IGPWP_Forestry_Project_sites0.csv	Sitolo
Sitolo	33.45	-12.56667	IGPWP_Forestry_Project_sites1.csv	Sitolo
Sitolo	33.45	-12.56667	IGPWP_Forestry_Project_sites.csv	Sitolo
Songwe	35.81667	-15.68333	215_pdf.txt	Songwe
Songwe	35.81667	-15.68333	52_pdf.txt	Songwe
Sosola	34.92949	-14.97243	48_pdf.txt	Sosola
Sosola	34.92949	-14.97243	49_pdf.txt	Sosola
Tambala	34.85327	-14.74021	30_pdf.txt	Tambala
Tambala	34.85327	-14.74021	36_pdf.txt	Tambala
Tambala	34.85327	-14.74021	IGPWP_Forestry_Project_sites0.csv	Tambala
Tambala	34.85327	-14.74021	IGPWP_Forestry_Project_sites1.csv	Tambala
Tambala	34.85327	-14.74021	IGPWP_Forestry_Project_sites.csv	Tambala
Tembwe	33.95	-14.33333	32_pdf.txt	Tembwe
Tembwe	33.95	-14.33333	IGPWP_Forestry_Project_sites0.csv	Tembwe
Tembwe	33.95	-14.33333	IGPWP_Forestry_Project_sites1.csv	Tembwe
Tembwe	33.95	-14.33333	IGPWP_Forestry_Project_sites.csv	Tembwe
Tengani	35.23333	-16.95	30_pdf.txt	Tengani
Thabwa	34.85657	-16.03546	215_pdf.txt	Thabwa
Thabwa	34.85657	-16.03546	52_pdf.txt	Thabwa
Thabwa	34.85657	-16.03546	IGPWP_Roads_project_sites0.csv	Thabwa
Thabwa	34.85657	-16.03546	IGPWP_Roads_project_sites1.csv	Thabwa
Thabwa	34.85657	-16.03546	IGPWP_Roads_project_sites.csv	Thabwa
Thako	33.15	-13.68333	IGPWP_Forestry_Project_sites0.csv	Thako
Thako	33.15	-13.68333	IGPWP_Forestry_Project_sites1.csv	Thako
Thako	33.15	-13.68333	IGPWP_Forestry_Project_sites.csv	Thako
Thete	33.83333	-12.11667	215_pdf.txt	Thete
Thete	33.83333	-12.11667	52_pdf.txt	Thete
Thondwe	35.45	-15.5	215_pdf.txt	Thondwe
Thondwe	35.45	-15.5	52_pdf.txt	Thondwe
Thuchila	35.31096	-15.97055	30_pdf.txt	Thuchila
Thudzu	35	-16.53333	IGPWP_Roads_project_sites0.csv	Thudzu
Thudzu	35	-16.53333	IGPWP_Roads_project_sites1.csv	Thudzu
Thudzu	35	-16.53333	IGPWP_Roads_project_sites.csv	Thudzu
Thyolo	35.14046	-16.06775	105_pdf.txt	Thyolo
Thyolo	35.14046	-16.06775	139_pdf.txt	Thyolo
Thyolo	35.14046	-16.06775	149_pdf.txt	Thyolo
Thyolo	35.14046	-16.06775	162_pdf.txt	Thyolo
Thyolo	35.14046	-16.06775	18_pdf.txt	Thyolo
Thyolo	35.14046	-16.06775	200_pdf.txt	Thyolo
Thyolo	35.14046	-16.06775	202_pdf.txt	Thyolo
Thyolo	35.14046	-16.06775	211_pdf.txt	Thyolo
Thyolo	35.14046	-16.06775	215_pdf.txt	Thyolo
Thyolo	35.14046	-16.06775	216_pdf.txt	Thyolo
Thyolo	35.14046	-16.06775	236_pdf.txt	Thyolo
Thyolo	35.14046	-16.06775	23_pdf.txt	Thyolo
Thyolo	35.14046	-16.06775	242_pdf.txt	Thyolo
Thyolo	35.14046	-16.06775	244_pdf.txt	Thyolo
Thyolo	35.14046	-16.06775	246_pdf.txt	Thyolo
Thyolo	35.14046	-16.06775	247_pdf.txt	Thyolo
Thyolo	35.14046	-16.06775	2_pdf.txt	Thyolo
Thyolo	35.14046	-16.06775	37_pdf.txt	Thyolo
Thyolo	35.14046	-16.06775	41_pdf.txt	Thyolo
Thyolo	35.14046	-16.06775	42_pdf.txt	Thyolo
Thyolo	35.14046	-16.06775	43_pdf.txt	Thyolo
Thyolo	35.14046	-16.06775	52_pdf.txt	Thyolo
Thyolo	35.14046	-16.06775	59_pdf.txt	Thyolo
Thyolo	35.14046	-16.06775	5_pdf.txt	Thyolo
Thyolo	35.14046	-16.06775	60_pdf.txt	Thyolo
Thyolo	35.14046	-16.06775	89_pdf.txt	Thyolo
Thyolo	35.14046	-16.06775	93_pdf.txt	Thyolo
Thyolo	35.14046	-16.06775	Food_Security_and_Agriculture_Project_List_from_MoAFS_March_2011.csv	Thyolo
Tizola	35.2	-16.65	149_pdf.txt	Tizola
Tizola	35.2	-16.65	93_pdf.txt	Tizola
Tongole	33.63333	-12.98333	IGPWP_Forestry_Project_sites0.csv	Tongole
Tongole	33.63333	-12.98333	IGPWP_Forestry_Project_sites1.csv	Tongole
Tongole	33.63333	-12.98333	IGPWP_Forestry_Project_sites.csv	Tongole
Tsangano	34.58333	-15.15	239_pdf.txt	Tsangano
Tsangano	34.58333	-15.15	241_pdf.txt	Tsangano
Tsumba	32.93333	-13.83333	IGPWP_Forestry_Project_sites0.csv	Tsumba
Tsumba	32.93333	-13.83333	IGPWP_Forestry_Project_sites1.csv	Tsumba
Tsumba	32.93333	-13.83333	IGPWP_Forestry_Project_sites.csv	Tsumba
Ulaya	34.86033	-15.77512	IGPWP_Forestry_Project_sites0.csv	Ulaya
Ulaya	34.86033	-15.77512	IGPWP_Forestry_Project_sites1.csv	Ulaya
Ulaya	34.86033	-15.77512	IGPWP_Forestry_Project_sites.csv	Ulaya
Uliwa	34.21033	-10.45318	206_pdf.txt	Uliwa
Uliwa	34.21033	-10.45318	215_pdf.txt	Uliwa
Uliwa	34.21033	-10.45318	52_pdf.txt	Uliwa
Uliwa	34.21033	-10.45318	53_pdf.txt	Uliwa
Ulongwe	35.25	-16.36667	IGPWP_Forestry_Project_sites0.csv	Ulongwe
Ulongwe	35.25	-16.36667	IGPWP_Forestry_Project_sites1.csv	Ulongwe
Ulongwe	35.25	-16.36667	IGPWP_Forestry_Project_sites.csv	Ulongwe
Usisya	34.21365	-11.23434	215_pdf.txt	Usisya
Usisya	34.21365	-11.23434	52_pdf.txt	Usisya
Vera	33.52651	-11.44257	192_pdf.txt	Vera
Vera	33.52651	-11.44257	193_pdf.txt	Vera
Zoa	35.26667	-16.35	IGPWP_Roads_project_sites0.csv	Zoa
Zoa	35.26667	-16.35	IGPWP_Roads_project_sites1.csv	Zoa
Zoa	35.26667	-16.35	IGPWP_Roads_project_sites.csv	Zoa
Zomba	35.27463	-15.35007	121_pdf.txt	Zomba
Zomba	35.27463	-15.35007	139_pdf.txt	Zomba
Zomba	35.27463	-15.35007	13_pdf.txt	Zomba
Zomba	35.27463	-15.35007	140_pdf.txt	Zomba
Zomba	35.27463	-15.35007	143_pdf.txt	Zomba
Zomba	35.27463	-15.35007	147_pdf.txt	Zomba
Zomba	35.27463	-15.35007	149_pdf.txt	Zomba
Zomba	35.27463	-15.35007	14_pdf.txt	Zomba
Zomba	35.27463	-15.35007	155_pdf.txt	Zomba
Zomba	35.27463	-15.35007	15_pdf.txt	Zomba
Zomba	35.27463	-15.35007	186_pdf.txt	Zomba
Zomba	35.27463	-15.35007	192_pdf.txt	Zomba
Zomba	35.27463	-15.35007	193_pdf.txt	Zomba
Zomba	35.27463	-15.35007	200_pdf.txt	Zomba
Zomba	35.27463	-15.35007	202_pdf.txt	Zomba
Zomba	35.27463	-15.35007	203_pdf.txt	Zomba
Zomba	35.27463	-15.35007	204_pdf.txt	Zomba
Zomba	35.27463	-15.35007	205_pdf.txt	Zomba
Zomba	35.27463	-15.35007	206_pdf.txt	Zomba
Zomba	35.27463	-15.35007	208_pdf.txt	Zomba
Zomba	35.27463	-15.35007	211_pdf.txt	Zomba
Zomba	35.27463	-15.35007	215_pdf.txt	Zomba
Zomba	35.27463	-15.35007	218_pdf.txt	Zomba
Zomba	35.27463	-15.35007	221_pdf.txt	Zomba
Zomba	35.27463	-15.35007	235_pdf.txt	Zomba
Zomba	35.27463	-15.35007	236_pdf.txt	Zomba
Zomba	35.27463	-15.35007	237_pdf.txt	Zomba
Zomba	35.27463	-15.35007	238_pdf.txt	Zomba
Zomba	35.27463	-15.35007	239_pdf.txt	Zomba
Zomba	35.27463	-15.35007	240_pdf.txt	Zomba
Zomba	35.27463	-15.35007	241_pdf.txt	Zomba
Zomba	35.27463	-15.35007	245_pdf.txt	Zomba
Zomba	35.27463	-15.35007	246_pdf.txt	Zomba
Zomba	35.27463	-15.35007	247_pdf.txt	Zomba
Zomba	35.27463	-15.35007	253_pdf.txt	Zomba
Zomba	35.27463	-15.35007	25_pdf.txt	Zomba
Zomba	35.27463	-15.35007	30_pdf.txt	Zomba
Zomba	35.27463	-15.35007	35_pdf.txt	Zomba
Zomba	35.27463	-15.35007	36_pdf.txt	Zomba
Zomba	35.27463	-15.35007	3_pdf.txt	Zomba
Zomba	35.27463	-15.35007	42_jpg.txt	Zomba
Zomba	35.27463	-15.35007	42_pdf.txt	Zomba
Zomba	35.27463	-15.35007	51_pdf.txt	Zomba
Zomba	35.27463	-15.35007	52_pdf.txt	Zomba
Zomba	35.27463	-15.35007	53_pdf.txt	Zomba
Zomba	35.27463	-15.35007	55_pdf.txt	Zomba
Zomba	35.27463	-15.35007	59_pdf.txt	Zomba
Zomba	35.27463	-15.35007	64_pdf.txt	Zomba
Zomba	35.27463	-15.35007	83_pdf.txt	Zomba
Zomba	35.27463	-15.35007	86_jpg.txt	Zomba
Zomba	35.27463	-15.35007	86_pdf.txt	Zomba
Zomba	35.27463	-15.35007	89_pdf.txt	Zomba
Zomba	35.27463	-15.35007	90_pdf.txt	Zomba
Zomba	35.27463	-15.35007	93_pdf.txt	Zomba
Zomba	35.27463	-15.35007	96_pdf.txt	Zomba
Zomba	35.27463	-15.35007	9_pdf.txt	Zomba
Zomba	35.27463	-15.35007	Food_Security_and_Agriculture_Project_List_from_MoAFS_March_2011.csv	Zomba
